<?xml version="1.0" encoding="UTF-8"?>
<kml xmlns="http://www.opengis.net/kml/2.2" xmlns:gx="http://www.google.com/kml/ext/2.2" xmlns:kml="http://www.opengis.net/kml/2.2" xmlns:atom="http://www.w3.org/2005/Atom">
<Document id="1VbEh3I7BS9bRXpq_5IQk8436NlLm1rFY">
	<name>MAPA D3</name>
	<StyleMap id="__managed_style_12C209ADFB3F80F05E48">
		<Pair>
			<key>normal</key>
			<styleUrl>#__managed_style_12C209ADFB3F80F05E48_normal</styleUrl>
		</Pair>
		<Pair>
			<key>highlight</key>
			<styleUrl>#__managed_style_12C209ADFB3F80F05E48_highlight</styleUrl>
		</Pair>
	</StyleMap>
	<gx:CascadingStyle kml:id="__managed_style_05EC9C97A33F80F05E3E_highlight">
		<Style>
			<IconStyle>
				<scale>1.2</scale>
				<Icon>
					<href>https://earth.google.com/earth/document/icon?color=1976d2&amp;id=2000&amp;scale=4</href>
				</Icon>
				<hotSpot x="64" y="128" xunits="pixels" yunits="insetPixels"/>
			</IconStyle>
			<LineStyle>
				<color>ffd27619</color>
				<width>1.9995</width>
			</LineStyle>
			<PolyStyle>
				<color>406b7900</color>
			</PolyStyle>
		</Style>
	</gx:CascadingStyle>
	<gx:CascadingStyle kml:id="__managed_style_05EC9C97A33F80F05E3E_normal">
		<Style>
			<IconStyle>
				<Icon>
					<href>https://earth.google.com/earth/document/icon?color=1976d2&amp;id=2000&amp;scale=4</href>
				</Icon>
				<hotSpot x="64" y="128" xunits="pixels" yunits="insetPixels"/>
			</IconStyle>
			<LineStyle>
				<color>ffd27619</color>
				<width>1.333</width>
			</LineStyle>
			<PolyStyle>
				<color>406b7900</color>
			</PolyStyle>
		</Style>
	</gx:CascadingStyle>
	<gx:CascadingStyle kml:id="__managed_style_068B6A29253F80F05E3F_normal">
		<Style>
			<IconStyle>
				<Icon>
					<href>https://earth.google.com/earth/document/icon?color=1976d2&amp;id=2000&amp;scale=4</href>
				</Icon>
				<hotSpot x="64" y="128" xunits="pixels" yunits="insetPixels"/>
			</IconStyle>
			<LineStyle>
				<color>ff000000</color>
				<width>1.333</width>
			</LineStyle>
			<PolyStyle>
				<color>4058eeff</color>
			</PolyStyle>
		</Style>
	</gx:CascadingStyle>
	<gx:CascadingStyle kml:id="__managed_style_068B6A29253F80F05E3F_highlight">
		<Style>
			<IconStyle>
				<scale>1.2</scale>
				<Icon>
					<href>https://earth.google.com/earth/document/icon?color=1976d2&amp;id=2000&amp;scale=4</href>
				</Icon>
				<hotSpot x="64" y="128" xunits="pixels" yunits="insetPixels"/>
			</IconStyle>
			<LineStyle>
				<color>ff000000</color>
				<width>1.9995</width>
			</LineStyle>
			<PolyStyle>
				<color>4058eeff</color>
			</PolyStyle>
		</Style>
	</gx:CascadingStyle>
	<StyleMap id="__managed_style_068B6A29253F80F05E3F">
		<Pair>
			<key>normal</key>
			<styleUrl>#__managed_style_068B6A29253F80F05E3F_normal</styleUrl>
		</Pair>
		<Pair>
			<key>highlight</key>
			<styleUrl>#__managed_style_068B6A29253F80F05E3F_highlight</styleUrl>
		</Pair>
	</StyleMap>
	<gx:CascadingStyle kml:id="__managed_style_3EA5D34DC13F80F05E3F_highlight">
		<Style>
			<IconStyle>
				<scale>1.2</scale>
				<Icon>
					<href>https://earth.google.com/earth/document/icon?color=1976d2&amp;id=2000&amp;scale=4</href>
				</Icon>
				<hotSpot x="64" y="128" xunits="pixels" yunits="insetPixels"/>
			</IconStyle>
			<LineStyle>
				<color>ff2dc0fb</color>
				<width>1.9995</width>
			</LineStyle>
			<PolyStyle>
				<color>80007cf5</color>
			</PolyStyle>
		</Style>
	</gx:CascadingStyle>
	<StyleMap id="__managed_style_3EA5D34DC13F80F05E3F">
		<Pair>
			<key>normal</key>
			<styleUrl>#__managed_style_3EA5D34DC13F80F05E3F_normal</styleUrl>
		</Pair>
		<Pair>
			<key>highlight</key>
			<styleUrl>#__managed_style_3EA5D34DC13F80F05E3F_highlight</styleUrl>
		</Pair>
	</StyleMap>
	<gx:CascadingStyle kml:id="__managed_style_06ED0636393F80F05E44_highlight">
		<Style>
			<IconStyle>
				<scale>1.2</scale>
				<Icon>
					<href>https://earth.google.com/earth/document/icon?color=1976d2&amp;id=2000&amp;scale=4</href>
				</Icon>
				<hotSpot x="64" y="128" xunits="pixels" yunits="insetPixels"/>
			</IconStyle>
			<LineStyle>
				<color>ff2dc0fb</color>
				<width>1.9995</width>
			</LineStyle>
			<PolyStyle>
				<color>806b7900</color>
			</PolyStyle>
		</Style>
	</gx:CascadingStyle>
	<gx:CascadingStyle kml:id="__managed_style_06ED0636393F80F05E44_normal">
		<Style>
			<IconStyle>
				<Icon>
					<href>https://earth.google.com/earth/document/icon?color=1976d2&amp;id=2000&amp;scale=4</href>
				</Icon>
				<hotSpot x="64" y="128" xunits="pixels" yunits="insetPixels"/>
			</IconStyle>
			<LineStyle>
				<color>ff2dc0fb</color>
				<width>1.333</width>
			</LineStyle>
			<PolyStyle>
				<color>806b7900</color>
			</PolyStyle>
		</Style>
	</gx:CascadingStyle>
	<StyleMap id="__managed_style_06ED0636393F80F05E44">
		<Pair>
			<key>normal</key>
			<styleUrl>#__managed_style_06ED0636393F80F05E44_normal</styleUrl>
		</Pair>
		<Pair>
			<key>highlight</key>
			<styleUrl>#__managed_style_06ED0636393F80F05E44_highlight</styleUrl>
		</Pair>
	</StyleMap>
	<gx:CascadingStyle kml:id="__managed_style_12C209ADFB3F80F05E48_highlight">
		<Style>
			<IconStyle>
				<scale>1.2</scale>
				<Icon>
					<href>https://earth.google.com/earth/document/icon?color=1976d2&amp;id=2000&amp;scale=4</href>
				</Icon>
				<hotSpot x="64" y="128" xunits="pixels" yunits="insetPixels"/>
			</IconStyle>
			<LineStyle>
				<color>ff9f3f30</color>
				<width>1.9995</width>
			</LineStyle>
			<PolyStyle>
				<color>405053ef</color>
			</PolyStyle>
		</Style>
	</gx:CascadingStyle>
	<gx:CascadingStyle kml:id="__managed_style_40DF249EA43F80F05E40_highlight">
		<Style>
			<IconStyle>
				<scale>1.2</scale>
				<Icon>
					<href>https://earth.google.com/earth/document/icon?color=1976d2&amp;id=2000&amp;scale=4</href>
				</Icon>
				<hotSpot x="64" y="128" xunits="pixels" yunits="insetPixels"/>
			</IconStyle>
			<LineStyle>
				<color>ff2dc0fb</color>
				<width>1.9995</width>
			</LineStyle>
			<PolyStyle>
				<color>806abb66</color>
			</PolyStyle>
		</Style>
	</gx:CascadingStyle>
	<gx:CascadingStyle kml:id="__managed_style_3AAA854D053F80F05E44_highlight">
		<Style>
			<IconStyle>
				<scale>1.2</scale>
				<Icon>
					<href>https://earth.google.com/earth/document/icon?color=1976d2&amp;id=2000&amp;scale=4</href>
				</Icon>
				<hotSpot x="64" y="128" xunits="pixels" yunits="insetPixels"/>
			</IconStyle>
			<LineStyle>
				<color>ff2dc0fb</color>
				<width>1.9995</width>
			</LineStyle>
			<PolyStyle>
				<color>809f3f30</color>
			</PolyStyle>
		</Style>
	</gx:CascadingStyle>
	<gx:CascadingStyle kml:id="__managed_style_3AAA854D053F80F05E44_normal">
		<Style>
			<IconStyle>
				<Icon>
					<href>https://earth.google.com/earth/document/icon?color=1976d2&amp;id=2000&amp;scale=4</href>
				</Icon>
				<hotSpot x="64" y="128" xunits="pixels" yunits="insetPixels"/>
			</IconStyle>
			<LineStyle>
				<color>ff2dc0fb</color>
				<width>1.333</width>
			</LineStyle>
			<PolyStyle>
				<color>809f3f30</color>
			</PolyStyle>
		</Style>
	</gx:CascadingStyle>
	<gx:CascadingStyle kml:id="__managed_style_40DF249EA43F80F05E40_normal">
		<Style>
			<IconStyle>
				<Icon>
					<href>https://earth.google.com/earth/document/icon?color=1976d2&amp;id=2000&amp;scale=4</href>
				</Icon>
				<hotSpot x="64" y="128" xunits="pixels" yunits="insetPixels"/>
			</IconStyle>
			<LineStyle>
				<color>ff2dc0fb</color>
				<width>1.333</width>
			</LineStyle>
			<PolyStyle>
				<color>806abb66</color>
			</PolyStyle>
		</Style>
	</gx:CascadingStyle>
	<StyleMap id="__managed_style_3AAA854D053F80F05E44">
		<Pair>
			<key>normal</key>
			<styleUrl>#__managed_style_3AAA854D053F80F05E44_normal</styleUrl>
		</Pair>
		<Pair>
			<key>highlight</key>
			<styleUrl>#__managed_style_3AAA854D053F80F05E44_highlight</styleUrl>
		</Pair>
	</StyleMap>
	<gx:CascadingStyle kml:id="__managed_style_408937A1AC3F80F05E44_highlight">
		<Style>
			<IconStyle>
				<scale>1.2</scale>
				<Icon>
					<href>https://earth.google.com/earth/document/icon?color=1976d2&amp;id=2000&amp;scale=4</href>
				</Icon>
				<hotSpot x="64" y="128" xunits="pixels" yunits="insetPixels"/>
			</IconStyle>
			<LineStyle>
				<color>ff2dc0fb</color>
				<width>1.9995</width>
			</LineStyle>
			<PolyStyle>
				<color>8037405d</color>
			</PolyStyle>
		</Style>
	</gx:CascadingStyle>
	<StyleMap id="__managed_style_29C1BEC9163F80F05E46">
		<Pair>
			<key>normal</key>
			<styleUrl>#__managed_style_29C1BEC9163F80F05E46_normal</styleUrl>
		</Pair>
		<Pair>
			<key>highlight</key>
			<styleUrl>#__managed_style_29C1BEC9163F80F05E46_highlight</styleUrl>
		</Pair>
	</StyleMap>
	<gx:CascadingStyle kml:id="__managed_style_408937A1AC3F80F05E44_normal">
		<Style>
			<IconStyle>
				<Icon>
					<href>https://earth.google.com/earth/document/icon?color=1976d2&amp;id=2000&amp;scale=4</href>
				</Icon>
				<hotSpot x="64" y="128" xunits="pixels" yunits="insetPixels"/>
			</IconStyle>
			<LineStyle>
				<color>ff2dc0fb</color>
				<width>1.333</width>
			</LineStyle>
			<PolyStyle>
				<color>8037405d</color>
			</PolyStyle>
		</Style>
	</gx:CascadingStyle>
	<gx:CascadingStyle kml:id="__managed_style_0F66D823183F80F05E43_normal">
		<Style>
			<IconStyle>
				<Icon>
					<href>https://earth.google.com/earth/document/icon?color=1976d2&amp;id=2000&amp;scale=4</href>
				</Icon>
				<hotSpot x="64" y="128" xunits="pixels" yunits="insetPixels"/>
			</IconStyle>
			<LineStyle>
				<color>ff2dc0fb</color>
				<width>1.333</width>
			</LineStyle>
			<PolyStyle>
				<color>80bb1014</color>
			</PolyStyle>
		</Style>
	</gx:CascadingStyle>
	<StyleMap id="__managed_style_0F66D823183F80F05E43">
		<Pair>
			<key>normal</key>
			<styleUrl>#__managed_style_0F66D823183F80F05E43_normal</styleUrl>
		</Pair>
		<Pair>
			<key>highlight</key>
			<styleUrl>#__managed_style_0F66D823183F80F05E43_highlight</styleUrl>
		</Pair>
	</StyleMap>
	<gx:CascadingStyle kml:id="__managed_style_139AC4653D3F80F05E43_highlight">
		<Style>
			<IconStyle>
				<scale>1.2</scale>
				<Icon>
					<href>https://earth.google.com/earth/document/icon?color=1976d2&amp;id=2000&amp;scale=4</href>
				</Icon>
				<hotSpot x="64" y="128" xunits="pixels" yunits="insetPixels"/>
			</IconStyle>
			<LineStyle>
				<color>ff2dc0fb</color>
				<width>1.9995</width>
			</LineStyle>
			<PolyStyle>
				<color>8026a7ff</color>
			</PolyStyle>
		</Style>
	</gx:CascadingStyle>
	<gx:CascadingStyle kml:id="__managed_style_139AC4653D3F80F05E43_normal">
		<Style>
			<IconStyle>
				<Icon>
					<href>https://earth.google.com/earth/document/icon?color=1976d2&amp;id=2000&amp;scale=4</href>
				</Icon>
				<hotSpot x="64" y="128" xunits="pixels" yunits="insetPixels"/>
			</IconStyle>
			<LineStyle>
				<color>ff2dc0fb</color>
				<width>1.333</width>
			</LineStyle>
			<PolyStyle>
				<color>8026a7ff</color>
			</PolyStyle>
		</Style>
	</gx:CascadingStyle>
	<gx:CascadingStyle kml:id="__managed_style_29C1BEC9163F80F05E46_highlight">
		<Style>
			<IconStyle>
				<scale>1.2</scale>
				<Icon>
					<href>https://earth.google.com/earth/document/icon?color=1976d2&amp;id=2000&amp;scale=4</href>
				</Icon>
				<hotSpot x="64" y="128" xunits="pixels" yunits="insetPixels"/>
			</IconStyle>
			<LineStyle>
				<color>ff58eeff</color>
				<width>1.9995</width>
			</LineStyle>
			<PolyStyle>
				<color>40ffffff</color>
			</PolyStyle>
		</Style>
	</gx:CascadingStyle>
	<StyleMap id="__managed_style_139AC4653D3F80F05E43">
		<Pair>
			<key>normal</key>
			<styleUrl>#__managed_style_139AC4653D3F80F05E43_normal</styleUrl>
		</Pair>
		<Pair>
			<key>highlight</key>
			<styleUrl>#__managed_style_139AC4653D3F80F05E43_highlight</styleUrl>
		</Pair>
	</StyleMap>
	<gx:CascadingStyle kml:id="__managed_style_064DA0CB223F80F05E47_normal">
		<Style>
			<IconStyle>
				<scale>0.75</scale>
				<Icon>
					<href>https://earth.google.com/earth/document/icon?color=1976d2&amp;id=2000&amp;scale=4</href>
				</Icon>
				<hotSpot x="64" y="128" xunits="pixels" yunits="insetPixels"/>
			</IconStyle>
			<LineStyle>
				<color>ff2dc0fb</color>
				<width>1.333</width>
			</LineStyle>
			<PolyStyle>
				<color>40ffffff</color>
			</PolyStyle>
		</Style>
	</gx:CascadingStyle>
	<StyleMap id="__managed_style_40DF249EA43F80F05E40">
		<Pair>
			<key>normal</key>
			<styleUrl>#__managed_style_40DF249EA43F80F05E40_normal</styleUrl>
		</Pair>
		<Pair>
			<key>highlight</key>
			<styleUrl>#__managed_style_40DF249EA43F80F05E40_highlight</styleUrl>
		</Pair>
	</StyleMap>
	<StyleMap id="__managed_style_064DA0CB223F80F05E47">
		<Pair>
			<key>normal</key>
			<styleUrl>#__managed_style_064DA0CB223F80F05E47_normal</styleUrl>
		</Pair>
		<Pair>
			<key>highlight</key>
			<styleUrl>#__managed_style_064DA0CB223F80F05E47_highlight</styleUrl>
		</Pair>
	</StyleMap>
	<gx:CascadingStyle kml:id="__managed_style_0E8C93E5F43F80F05E41_normal">
		<Style>
			<IconStyle>
				<Icon>
					<href>https://earth.google.com/earth/document/icon?color=1976d2&amp;id=2000&amp;scale=4</href>
				</Icon>
				<hotSpot x="64" y="128" xunits="pixels" yunits="insetPixels"/>
			</IconStyle>
			<LineStyle>
				<color>ff2dc0fb</color>
				<width>1.333</width>
			</LineStyle>
			<PolyStyle>
				<color>80bc47ab</color>
			</PolyStyle>
		</Style>
	</gx:CascadingStyle>
	<gx:CascadingStyle kml:id="__managed_style_3EA5D34DC13F80F05E3F_normal">
		<Style>
			<IconStyle>
				<Icon>
					<href>https://earth.google.com/earth/document/icon?color=1976d2&amp;id=2000&amp;scale=4</href>
				</Icon>
				<hotSpot x="64" y="128" xunits="pixels" yunits="insetPixels"/>
			</IconStyle>
			<LineStyle>
				<color>ff2dc0fb</color>
				<width>1.333</width>
			</LineStyle>
			<PolyStyle>
				<color>80007cf5</color>
			</PolyStyle>
		</Style>
	</gx:CascadingStyle>
	<gx:CascadingStyle kml:id="__managed_style_0E8C93E5F43F80F05E41_highlight">
		<Style>
			<IconStyle>
				<scale>1.2</scale>
				<Icon>
					<href>https://earth.google.com/earth/document/icon?color=1976d2&amp;id=2000&amp;scale=4</href>
				</Icon>
				<hotSpot x="64" y="128" xunits="pixels" yunits="insetPixels"/>
			</IconStyle>
			<LineStyle>
				<color>ff2dc0fb</color>
				<width>1.9995</width>
			</LineStyle>
			<PolyStyle>
				<color>80bc47ab</color>
			</PolyStyle>
		</Style>
	</gx:CascadingStyle>
	<StyleMap id="__managed_style_0E8C93E5F43F80F05E41">
		<Pair>
			<key>normal</key>
			<styleUrl>#__managed_style_0E8C93E5F43F80F05E41_normal</styleUrl>
		</Pair>
		<Pair>
			<key>highlight</key>
			<styleUrl>#__managed_style_0E8C93E5F43F80F05E41_highlight</styleUrl>
		</Pair>
	</StyleMap>
	<gx:CascadingStyle kml:id="__managed_style_20719EBC8C3F80F05E40_highlight">
		<Style>
			<IconStyle>
				<scale>1.2</scale>
				<Icon>
					<href>https://earth.google.com/earth/document/icon?color=1976d2&amp;id=2000&amp;scale=4</href>
				</Icon>
				<hotSpot x="64" y="128" xunits="pixels" yunits="insetPixels"/>
			</IconStyle>
			<LineStyle>
				<color>ff2dc0fb</color>
				<width>1.9995</width>
			</LineStyle>
			<PolyStyle>
				<color>80f5a542</color>
			</PolyStyle>
		</Style>
	</gx:CascadingStyle>
	<gx:CascadingStyle kml:id="__managed_style_12C209ADFB3F80F05E48_normal">
		<Style>
			<IconStyle>
				<Icon>
					<href>https://earth.google.com/earth/document/icon?color=1976d2&amp;id=2000&amp;scale=4</href>
				</Icon>
				<hotSpot x="64" y="128" xunits="pixels" yunits="insetPixels"/>
			</IconStyle>
			<LineStyle>
				<color>ff9f3f30</color>
				<width>1.333</width>
			</LineStyle>
			<PolyStyle>
				<color>405053ef</color>
			</PolyStyle>
		</Style>
	</gx:CascadingStyle>
	<gx:CascadingStyle kml:id="__managed_style_2413F4E2973F80F05E41_normal">
		<Style>
			<IconStyle>
				<Icon>
					<href>https://earth.google.com/earth/document/icon?color=1976d2&amp;id=2000&amp;scale=4</href>
				</Icon>
				<hotSpot x="64" y="128" xunits="pixels" yunits="insetPixels"/>
			</IconStyle>
			<LineStyle>
				<color>ff2dc0fb</color>
				<width>1.333</width>
			</LineStyle>
			<PolyStyle>
				<color>80c06b5c</color>
			</PolyStyle>
		</Style>
	</gx:CascadingStyle>
	<gx:CascadingStyle kml:id="__managed_style_0F66D823183F80F05E43_highlight">
		<Style>
			<IconStyle>
				<scale>1.2</scale>
				<Icon>
					<href>https://earth.google.com/earth/document/icon?color=1976d2&amp;id=2000&amp;scale=4</href>
				</Icon>
				<hotSpot x="64" y="128" xunits="pixels" yunits="insetPixels"/>
			</IconStyle>
			<LineStyle>
				<color>ff2dc0fb</color>
				<width>1.9995</width>
			</LineStyle>
			<PolyStyle>
				<color>80bb1014</color>
			</PolyStyle>
		</Style>
	</gx:CascadingStyle>
	<StyleMap id="__managed_style_2413F4E2973F80F05E41">
		<Pair>
			<key>normal</key>
			<styleUrl>#__managed_style_2413F4E2973F80F05E41_normal</styleUrl>
		</Pair>
		<Pair>
			<key>highlight</key>
			<styleUrl>#__managed_style_2413F4E2973F80F05E41_highlight</styleUrl>
		</Pair>
	</StyleMap>
	<gx:CascadingStyle kml:id="__managed_style_11C6D048FA3F80F05E47_highlight">
		<Style>
			<IconStyle>
				<scale>1.2</scale>
				<Icon>
					<href>https://earth.google.com/earth/document/icon?color=1976d2&amp;id=2000&amp;scale=4</href>
				</Icon>
				<hotSpot x="64" y="128" xunits="pixels" yunits="insetPixels"/>
			</IconStyle>
			<LineStyle>
				<color>ff2dc0fb</color>
				<width>1.9995</width>
			</LineStyle>
			<PolyStyle>
				<color>8058eeff</color>
			</PolyStyle>
		</Style>
	</gx:CascadingStyle>
	<gx:CascadingStyle kml:id="__managed_style_11C6D048FA3F80F05E47_normal">
		<Style>
			<IconStyle>
				<Icon>
					<href>https://earth.google.com/earth/document/icon?color=1976d2&amp;id=2000&amp;scale=4</href>
				</Icon>
				<hotSpot x="64" y="128" xunits="pixels" yunits="insetPixels"/>
			</IconStyle>
			<LineStyle>
				<color>ff2dc0fb</color>
				<width>1.333</width>
			</LineStyle>
			<PolyStyle>
				<color>8058eeff</color>
			</PolyStyle>
		</Style>
	</gx:CascadingStyle>
	<StyleMap id="__managed_style_11C6D048FA3F80F05E47">
		<Pair>
			<key>normal</key>
			<styleUrl>#__managed_style_11C6D048FA3F80F05E47_normal</styleUrl>
		</Pair>
		<Pair>
			<key>highlight</key>
			<styleUrl>#__managed_style_11C6D048FA3F80F05E47_highlight</styleUrl>
		</Pair>
	</StyleMap>
	<StyleMap id="__managed_style_408937A1AC3F80F05E44">
		<Pair>
			<key>normal</key>
			<styleUrl>#__managed_style_408937A1AC3F80F05E44_normal</styleUrl>
		</Pair>
		<Pair>
			<key>highlight</key>
			<styleUrl>#__managed_style_408937A1AC3F80F05E44_highlight</styleUrl>
		</Pair>
	</StyleMap>
	<gx:CascadingStyle kml:id="__managed_style_2413F4E2973F80F05E41_highlight">
		<Style>
			<IconStyle>
				<scale>1.2</scale>
				<Icon>
					<href>https://earth.google.com/earth/document/icon?color=1976d2&amp;id=2000&amp;scale=4</href>
				</Icon>
				<hotSpot x="64" y="128" xunits="pixels" yunits="insetPixels"/>
			</IconStyle>
			<LineStyle>
				<color>ff2dc0fb</color>
				<width>1.9995</width>
			</LineStyle>
			<PolyStyle>
				<color>80c06b5c</color>
			</PolyStyle>
		</Style>
	</gx:CascadingStyle>
	<gx:CascadingStyle kml:id="__managed_style_287CB5C3E83F80F05E47_normal">
		<Style>
			<IconStyle>
				<Icon>
					<href>https://earth.google.com/earth/document/icon?color=1976d2&amp;id=2000&amp;scale=4</href>
				</Icon>
				<hotSpot x="64" y="128" xunits="pixels" yunits="insetPixels"/>
			</IconStyle>
			<LineStyle>
				<color>ff2dc0fb</color>
				<width>1.333</width>
			</LineStyle>
			<PolyStyle>
				<color>805053ef</color>
			</PolyStyle>
		</Style>
	</gx:CascadingStyle>
	<gx:CascadingStyle kml:id="__managed_style_13197BBEA03F80F05E46_normal">
		<Style>
			<IconStyle>
				<Icon>
					<href>https://earth.google.com/earth/document/icon?color=1976d2&amp;id=2000&amp;scale=4</href>
				</Icon>
				<hotSpot x="64" y="128" xunits="pixels" yunits="insetPixels"/>
			</IconStyle>
			<LineStyle>
				<color>ff2dc0fb</color>
				<width>1.333</width>
			</LineStyle>
			<PolyStyle>
				<color>809aa626</color>
			</PolyStyle>
		</Style>
	</gx:CascadingStyle>
	<StyleMap id="__managed_style_13197BBEA03F80F05E46">
		<Pair>
			<key>normal</key>
			<styleUrl>#__managed_style_13197BBEA03F80F05E46_normal</styleUrl>
		</Pair>
		<Pair>
			<key>highlight</key>
			<styleUrl>#__managed_style_13197BBEA03F80F05E46_highlight</styleUrl>
		</Pair>
	</StyleMap>
	<StyleMap id="__managed_style_287CB5C3E83F80F05E47">
		<Pair>
			<key>normal</key>
			<styleUrl>#__managed_style_287CB5C3E83F80F05E47_normal</styleUrl>
		</Pair>
		<Pair>
			<key>highlight</key>
			<styleUrl>#__managed_style_287CB5C3E83F80F05E47_highlight</styleUrl>
		</Pair>
	</StyleMap>
	<gx:CascadingStyle kml:id="__managed_style_39C322789E3F80F05E3C_highlight">
		<Style>
			<IconStyle>
				<scale>1.2</scale>
				<Icon>
					<href>https://earth.google.com/earth/document/icon?color=1976d2&amp;id=2000&amp;scale=4</href>
				</Icon>
				<hotSpot x="64" y="128" xunits="pixels" yunits="insetPixels"/>
			</IconStyle>
			<LineStyle>
				<color>ff2dc0fb</color>
				<width>1.9995</width>
			</LineStyle>
			<PolyStyle>
				<color>40ffffff</color>
			</PolyStyle>
		</Style>
	</gx:CascadingStyle>
	<StyleMap id="__managed_style_20719EBC8C3F80F05E40">
		<Pair>
			<key>normal</key>
			<styleUrl>#__managed_style_20719EBC8C3F80F05E40_normal</styleUrl>
		</Pair>
		<Pair>
			<key>highlight</key>
			<styleUrl>#__managed_style_20719EBC8C3F80F05E40_highlight</styleUrl>
		</Pair>
	</StyleMap>
	<gx:CascadingStyle kml:id="__managed_style_13197BBEA03F80F05E46_highlight">
		<Style>
			<IconStyle>
				<scale>1.2</scale>
				<Icon>
					<href>https://earth.google.com/earth/document/icon?color=1976d2&amp;id=2000&amp;scale=4</href>
				</Icon>
				<hotSpot x="64" y="128" xunits="pixels" yunits="insetPixels"/>
			</IconStyle>
			<LineStyle>
				<color>ff2dc0fb</color>
				<width>1.9995</width>
			</LineStyle>
			<PolyStyle>
				<color>809aa626</color>
			</PolyStyle>
		</Style>
	</gx:CascadingStyle>
	<gx:CascadingStyle kml:id="__managed_style_39C322789E3F80F05E3C_normal">
		<Style>
			<IconStyle>
				<Icon>
					<href>https://earth.google.com/earth/document/icon?color=1976d2&amp;id=2000&amp;scale=4</href>
				</Icon>
				<hotSpot x="64" y="128" xunits="pixels" yunits="insetPixels"/>
			</IconStyle>
			<LineStyle>
				<color>ff2dc0fb</color>
				<width>1.333</width>
			</LineStyle>
			<PolyStyle>
				<color>40ffffff</color>
			</PolyStyle>
		</Style>
	</gx:CascadingStyle>
	<StyleMap id="__managed_style_39C322789E3F80F05E3C">
		<Pair>
			<key>normal</key>
			<styleUrl>#__managed_style_39C322789E3F80F05E3C_normal</styleUrl>
		</Pair>
		<Pair>
			<key>highlight</key>
			<styleUrl>#__managed_style_39C322789E3F80F05E3C_highlight</styleUrl>
		</Pair>
	</StyleMap>
	<gx:CascadingStyle kml:id="__managed_style_064DA0CB223F80F05E47_highlight">
		<Style>
			<IconStyle>
				<scale>0.9</scale>
				<Icon>
					<href>https://earth.google.com/earth/document/icon?color=1976d2&amp;id=2000&amp;scale=4</href>
				</Icon>
				<hotSpot x="64" y="128" xunits="pixels" yunits="insetPixels"/>
			</IconStyle>
			<LineStyle>
				<color>ff2dc0fb</color>
				<width>1.9995</width>
			</LineStyle>
			<PolyStyle>
				<color>40ffffff</color>
			</PolyStyle>
		</Style>
	</gx:CascadingStyle>
	<StyleMap id="__managed_style_05EC9C97A33F80F05E3E">
		<Pair>
			<key>normal</key>
			<styleUrl>#__managed_style_05EC9C97A33F80F05E3E_normal</styleUrl>
		</Pair>
		<Pair>
			<key>highlight</key>
			<styleUrl>#__managed_style_05EC9C97A33F80F05E3E_highlight</styleUrl>
		</Pair>
	</StyleMap>
	<gx:CascadingStyle kml:id="__managed_style_20719EBC8C3F80F05E40_normal">
		<Style>
			<IconStyle>
				<Icon>
					<href>https://earth.google.com/earth/document/icon?color=1976d2&amp;id=2000&amp;scale=4</href>
				</Icon>
				<hotSpot x="64" y="128" xunits="pixels" yunits="insetPixels"/>
			</IconStyle>
			<LineStyle>
				<color>ff2dc0fb</color>
				<width>1.333</width>
			</LineStyle>
			<PolyStyle>
				<color>80f5a542</color>
			</PolyStyle>
		</Style>
	</gx:CascadingStyle>
	<gx:CascadingStyle kml:id="__managed_style_287CB5C3E83F80F05E47_highlight">
		<Style>
			<IconStyle>
				<scale>1.2</scale>
				<Icon>
					<href>https://earth.google.com/earth/document/icon?color=1976d2&amp;id=2000&amp;scale=4</href>
				</Icon>
				<hotSpot x="64" y="128" xunits="pixels" yunits="insetPixels"/>
			</IconStyle>
			<LineStyle>
				<color>ff2dc0fb</color>
				<width>1.9995</width>
			</LineStyle>
			<PolyStyle>
				<color>805053ef</color>
			</PolyStyle>
		</Style>
	</gx:CascadingStyle>
	<gx:CascadingStyle kml:id="__managed_style_29C1BEC9163F80F05E46_normal">
		<Style>
			<IconStyle>
				<Icon>
					<href>https://earth.google.com/earth/document/icon?color=1976d2&amp;id=2000&amp;scale=4</href>
				</Icon>
				<hotSpot x="64" y="128" xunits="pixels" yunits="insetPixels"/>
			</IconStyle>
			<LineStyle>
				<color>ff58eeff</color>
				<width>1.333</width>
			</LineStyle>
			<PolyStyle>
				<color>40ffffff</color>
			</PolyStyle>
		</Style>
	</gx:CascadingStyle>
	<Placemark id="023DC268ED3D1EF06871">
		<name>SECCION 39</name>
		<LookAt>
			<longitude>-90.49666808130888</longitude>
			<latitude>19.84660628089797</latitude>
			<altitude>11.852130171334</altitude>
			<heading>356.9264589660979</heading>
			<tilt>0</tilt>
			<gx:fovy>35</gx:fovy>
			<range>364.0473778127853</range>
			<altitudeMode>absolute</altitudeMode>
		</LookAt>
		<styleUrl>#__managed_style_29C1BEC9163F80F05E46</styleUrl>
		<LineString>
			<coordinates>
				-90.49720283108809,19.84642630653887,0 -90.49673015449092,19.84643088979909,0 -90.49416708151701,19.84789069434585,0 -90.49383911210928,19.84812385891824,0 -90.49371654641497,19.84828629362267,0 -90.49357708282147,19.84848763837447,0 -90.4934490837452,19.84904211650396,0 -90.49333131345556,19.84924483030435,0 -90.49315038167403,19.84940567502918,0 -90.49244567186072,19.8498214242871,0 -90.49172444109735,19.84860320406383,0 -90.49094427042219,19.84803514689986,0 -90.49112460602504,19.84716090249624,0 -90.49111374503752,19.84703451778637,0 -90.49106112034791,19.84696489733449,0 -90.49096195247617,19.84689607471439,0 -90.49081970034705,19.84678205837502,0 -90.49122513293344,19.84632546042209,0 -90.48969487737608,19.84515192978584,0 -90.48976066080596,19.84505628736006,0 -90.49088314430408,19.84394368902431,0 -90.490220030039,19.84332563174185,0 -90.49238042516623,19.84113915100413,0 -90.49260044238548,19.84129385472458,0 -90.49263036184587,19.84126574293745,0 -90.49305902693158,19.84145535330213,0 -90.49316279501868,19.8412082071842,0 -90.49333144464296,19.84134240836945,0 -90.49342789826495,19.84126642419553,0 -90.49373494099773,19.84147763047865,0 -90.4941893502545,19.84094087532364,0 -90.4949026400292,19.84140763398112,0 -90.49422498450399,19.84234280052937,0 -90.49382381206867,19.84276147341057,0 -90.49587350422783,19.84412153679341,0 -90.49482246062098,19.8455876617885,0 -90.49503679166176,19.84576646819683,0 -90.49524277561054,19.84586042335833,0 -90.49550254696706,19.8460473461785,0 -90.4956712354352,19.84618277481954,0 -90.49573752379095,19.84620288438569,0 -90.4957912894052,19.84621084964987,0 -90.49583931241,19.84620407304357,0 -90.4959156997824,19.84617430873634,0 -90.49622710197126,19.84602072077214,0 -90.49644873850478,19.84594108763595,0 -90.49660555925227,19.84591113903524,0 -90.49680806634923,19.84589786512681,0 -90.49700456800025,19.84591744073896,0 -90.49711600586332,19.84594178484578,0 -90.49721602836935,19.84600399154649,0 -90.49721420251468,19.84637641198029,0 
			</coordinates>
		</LineString>
	</Placemark>
	<Placemark id="034422EFE03D1EF11668">
		<name>SECCION 39</name>
		<LookAt>
			<longitude>-90.49714958085073</longitude>
			<latitude>19.84639219721501</latitude>
			<altitude>11.59306900245758</altitude>
			<heading>356.9264562442738</heading>
			<tilt>0</tilt>
			<gx:fovy>35</gx:fovy>
			<range>38.27243683120741</range>
			<altitudeMode>absolute</altitudeMode>
		</LookAt>
		<styleUrl>#__managed_style_39C322789E3F80F05E3C</styleUrl>
		<LineString>
			<coordinates>
				-90.49721448187522,19.84637591368146,0 -90.49720302520491,19.84642593699892,0 
			</coordinates>
		</LineString>
	</Placemark>
	<Placemark id="00178612A63D1EF1A780">
		<name>SECCION 39, AMPLIACIÓN KALA I, ESPERANZA, CAMINEROS, ANTONIO GONZALEZ CURI</name>
		<LookAt>
			<longitude>-90.49503353448543</longitude>
			<latitude>19.84585814993807</latitude>
			<altitude>27.86321191736494</altitude>
			<heading>356.9264524914468</heading>
			<tilt>0</tilt>
			<gx:fovy>35</gx:fovy>
			<range>1405.98071215165</range>
			<altitudeMode>absolute</altitudeMode>
		</LookAt>
		<styleUrl>#__managed_style_39C322789E3F80F05E3C</styleUrl>
		<Point>
			<coordinates>-90.49330741636653,19.84641940760765,32.57553894995304</coordinates>
		</Point>
	</Placemark>
	<Placemark id="01AD1C3AC13D1EFA02D1">
		<name>SECCION 40</name>
		<LookAt>
			<longitude>-90.4993009527939</longitude>
			<latitude>19.84661454940482</latitude>
			<altitude>12.40837929929832</altitude>
			<heading>356.9264245928405</heading>
			<tilt>0</tilt>
			<gx:fovy>35</gx:fovy>
			<range>1064.347811239713</range>
			<altitudeMode>absolute</altitudeMode>
		</LookAt>
		<styleUrl>#__managed_style_20719EBC8C3F80F05E40</styleUrl>
		<Polygon>
			<outerBoundaryIs>
				<LinearRing>
					<coordinates>
						-90.49851165081969,19.84644683865437,0 -90.49881466444459,19.84758867388046,0 -90.49797489568655,19.84778443977689,0 -90.49791776209081,19.84818691749716,0 -90.49836679194628,19.84819200005062,0 -90.49955258757781,19.84786707498361,0 -90.50067470447908,19.84748764450966,0 -90.50092664074985,19.84735629636994,0 -90.50167473940641,19.84711228075552,0 -90.50085326474857,19.84592379923348,0 -90.50123955494682,19.84575725425626,0 -90.50156776759798,19.84568541769894,0 -90.50209347205768,19.84552748303536,0 -90.50269911032375,19.84537646163445,0 -90.50401468571023,19.84502337884545,0 -90.5038686395352,19.84370157949979,0 -90.50370460131762,19.84367990722448,0 -90.50358008548007,19.84367118139167,0 -90.50339431472391,19.84367688529924,0 -90.50307707677996,19.84377984501303,0 -90.50200995656694,19.84423558760705,0 -90.4989515932038,19.84623756604816,0 -90.49873193200631,19.84633835785283,0 -90.49851165081969,19.84644683865437,0 
					</coordinates>
				</LinearRing>
			</outerBoundaryIs>
		</Polygon>
	</Placemark>
	<Placemark id="0AF29E447E3D1EFA6BA7">
		<name>SECCION 40, LA PEÑA, PABLO GARCIA</name>
		<LookAt>
			<longitude>-90.50087370511589</longitude>
			<latitude>19.84573069261443</latitude>
			<altitude>11.84460511469245</altitude>
			<heading>356.9264233817836</heading>
			<tilt>0</tilt>
			<gx:fovy>35</gx:fovy>
			<range>1064.911675876938</range>
			<altitudeMode>absolute</altitudeMode>
		</LookAt>
		<styleUrl>#__managed_style_39C322789E3F80F05E3C</styleUrl>
		<Point>
			<coordinates>-90.50008140173873,19.84654829271747,14.18695209959471</coordinates>
		</Point>
	</Placemark>
	<Placemark id="0B6AA4E0CF3D1F000043">
		<name>SECCION 41</name>
		<LookAt>
			<longitude>-90.50220726343537</longitude>
			<latitude>19.84713602949749</latitude>
			<altitude>27.6244488225454</altitude>
			<heading>356.9263914462923</heading>
			<tilt>0</tilt>
			<gx:fovy>35</gx:fovy>
			<range>227.3695379402125</range>
			<altitudeMode>absolute</altitudeMode>
		</LookAt>
		<styleUrl>#__managed_style_13197BBEA03F80F05E46</styleUrl>
		<Polygon>
			<outerBoundaryIs>
				<LinearRing>
					<coordinates>
						-90.50257681601722,19.8468742745685,0 -90.50421556086458,19.84637873931606,0 -90.50589430112956,19.84556776080099,0 -90.50630131441864,19.84620958707283,0 -90.50709414121583,19.84559911594022,0 -90.50659128932482,19.84520795679376,0 -90.50646745617055,19.84509307279673,0 -90.50625107857144,19.84496688076062,0 -90.50607969563244,19.84486578955478,0 -90.50595466813138,19.84476911627277,0 -90.50570195568429,19.84451270414941,0 -90.50558835239696,19.84433770283751,0 -90.50386892396033,19.84370208483126,0 -90.50401369605356,19.84502456119353,0 -90.5020888144536,19.84552832484417,0 -90.50156000614912,19.84568640264352,0 -90.50123767145438,19.84575733164474,0 -90.50085276860557,19.84592289432885,0 -90.50167061073529,19.84710683473587,0 -90.50257681601722,19.8468742745685,0 
					</coordinates>
				</LinearRing>
			</outerBoundaryIs>
		</Polygon>
	</Placemark>
	<Placemark id="09778D06883D1F0060A9">
		<name>SECCION 41, PABLO GARCIA, LA PEÑA</name>
		<LookAt>
			<longitude>-90.5041434611804</longitude>
			<latitude>19.8460305162828</latitude>
			<altitude>21.61203528136291</altitude>
			<heading>356.9263891521224</heading>
			<tilt>0</tilt>
			<gx:fovy>35</gx:fovy>
			<range>805.0517559766013</range>
			<altitudeMode>absolute</altitudeMode>
		</LookAt>
		<styleUrl>#__managed_style_39C322789E3F80F05E3C</styleUrl>
		<Point>
			<coordinates>-90.50437381253053,19.84563151780547,20.42695337115524</coordinates>
		</Point>
	</Placemark>
	<Placemark id="020AE9A98B3D1F093788">
		<name>SECCION 42</name>
		<LookAt>
			<longitude>-90.510460235499</longitude>
			<latitude>19.84420755525037</latitude>
			<altitude>7.062818008269902</altitude>
			<heading>356.9263528331656</heading>
			<tilt>0</tilt>
			<gx:fovy>35</gx:fovy>
			<range>2466.896291767771</range>
			<altitudeMode>absolute</altitudeMode>
		</LookAt>
		<styleUrl>#__managed_style_11C6D048FA3F80F05E47</styleUrl>
		<Polygon>
			<outerBoundaryIs>
				<LinearRing>
					<coordinates>
						-90.50912043078638,19.84226442253629,0 -90.50691058026979,19.84211091806808,0 -90.50604295968117,19.84203365427358,0 -90.50581072734364,19.84205624901895,0 -90.50531796793571,19.8421646633661,0 -90.50494845631682,19.84228249014827,0 -90.50471077265576,19.84238024392463,0 -90.50263044686062,19.84379093784301,0 -90.50242234190556,19.84386682552534,0 -90.50242865378596,19.8438975784792,0 -90.50242007818727,19.84392694056787,0 -90.5024058851215,19.84395765254207,0 -90.50234200705391,19.84399627742973,0 -90.50240633442867,19.84406628773552,0 -90.50308371208902,19.84377843968153,0 -90.50339469371522,19.84367638077708,0 -90.50358174809719,19.84367145628256,0 -90.50370532018142,19.84368012085026,0 -90.50386872972116,19.84370234809428,0 -90.50558749131748,19.84433727811725,0 -90.50645086307139,19.84439680596365,0 -90.50748867305379,19.84470644717239,0 -90.50859512476126,19.84477912988672,0 -90.50878902227265,19.84477688685131,0 -90.50911204182405,19.8448313260679,0 -90.50968705560685,19.84493757430486,0 -90.50980639377151,19.84409881805134,0 -90.51181646700378,19.84442016606437,0 -90.51216356228038,19.84307108455732,0 -90.511720077219,19.84248209717136,0 -90.50912043078638,19.84226442253629,0 
					</coordinates>
				</LinearRing>
			</outerBoundaryIs>
		</Polygon>
	</Placemark>
	<Placemark id="0F6DA925B53D1F0AEF20">
		<name>SECCION 42, SANTA LUCIA</name>
		<LookAt>
			<longitude>-90.50544549604224</longitude>
			<latitude>19.84534817407903</latitude>
			<altitude>28.47296535646382</altitude>
			<heading>356.9263516700749</heading>
			<tilt>0</tilt>
			<gx:fovy>35</gx:fovy>
			<range>2445.486308845575</range>
			<altitudeMode>absolute</altitudeMode>
		</LookAt>
		<styleUrl>#__managed_style_39C322789E3F80F05E3C</styleUrl>
		<Point>
			<coordinates>-90.50864112415975,19.84316638256638,12.61785659195181</coordinates>
		</Point>
	</Placemark>
	<Placemark id="0D95C09A673D1F0FD786">
		<name>SECCION 43</name>
		<LookAt>
			<longitude>-90.50606107767345</longitude>
			<latitude>19.84446699887217</latitude>
			<altitude>11.99588965009889</altitude>
			<heading>356.9263243435157</heading>
			<tilt>0</tilt>
			<gx:fovy>35</gx:fovy>
			<range>184.9494552175747</range>
			<altitudeMode>absolute</altitudeMode>
		</LookAt>
		<styleUrl>#__managed_style_2413F4E2973F80F05E41</styleUrl>
		<Polygon>
			<outerBoundaryIs>
				<LinearRing>
					<coordinates>
						-90.50559077600217,19.84433644578056,0 -90.50570299356004,19.84451509409036,0 -90.50595346609883,19.84476947208029,0 -90.50646801213028,19.84509450622912,0 -90.50709593090744,19.84559893896962,0 -90.5082137205986,19.84708354132515,0 -90.50825061626389,19.84715494616236,0 -90.50901366092654,19.84734319848566,0 -90.51092984007718,19.84761009872224,0 -90.51135284209262,19.84630915797362,0 -90.51159321608996,19.84533304826933,0 -90.51181687638312,19.84441970842068,0 -90.50980655528119,19.8440990240768,0 -90.5096871645469,19.84493783501392,0 -90.50909789221009,19.844829061152,0 -90.50879421074691,19.84477654016081,0 -90.50859822549346,19.8447794677077,0 -90.50749295849151,19.84470610041564,0 -90.50644884608943,19.84439701155869,0 -90.50559077600217,19.84433644578056,0 
					</coordinates>
				</LinearRing>
			</outerBoundaryIs>
		</Polygon>
	</Placemark>
	<Placemark id="0B6299E1C63D1F104823">
		<name>SECCION 43, SANTA LUCIA</name>
		<LookAt>
			<longitude>-90.51090273615463</longitude>
			<latitude>19.84547847859969</latitude>
			<altitude>7.229685878965619</altitude>
			<heading>356.9263212599807</heading>
			<tilt>0</tilt>
			<gx:fovy>35</gx:fovy>
			<range>1470.395154609141</range>
			<altitudeMode>absolute</altitudeMode>
		</LookAt>
		<styleUrl>#__managed_style_39C322789E3F80F05E3C</styleUrl>
		<Point>
			<coordinates>-90.51013583033671,19.84571622210539,5.880208283846682</coordinates>
		</Point>
	</Placemark>
	<Placemark id="0F0EB9CD183D1F167C9C">
		<name>SECCION 44</name>
		<LookAt>
			<longitude>-90.51405790982822</longitude>
			<latitude>19.84333438383538</latitude>
			<altitude>0.2425639650631761</altitude>
			<heading>356.926284191986</heading>
			<tilt>0</tilt>
			<gx:fovy>35</gx:fovy>
			<range>584.2993531208049</range>
			<altitudeMode>absolute</altitudeMode>
		</LookAt>
		<styleUrl>#__managed_style_0E8C93E5F43F80F05E41</styleUrl>
		<Polygon>
			<outerBoundaryIs>
				<LinearRing>
					<coordinates>
						-90.51172007170943,19.84248194345408,0 -90.51216387425904,19.84307221408545,0 -90.51181748092428,19.84442102455826,0 -90.5113627708233,19.84626175985074,0 -90.51093011731025,19.84760919075251,0 -90.51310291526332,19.84790038382176,0 -90.51358087485764,19.84563945736924,0 -90.51446746287208,19.84578157906422,0 -90.51451666854909,19.84553398546633,0 -90.51392690270022,19.84501859629687,0 -90.51410059532712,19.84474775732891,0 -90.51443931443819,19.84414696518112,0 -90.51411675485868,19.84377277253768,0 -90.51393180586595,19.84360682242887,0 -90.5137166806399,19.84346030935499,0 -90.51365831557847,19.84342986768784,0 -90.51289979989767,19.84255655490744,0 -90.51172007170943,19.84248194345408,0 
					</coordinates>
				</LinearRing>
			</outerBoundaryIs>
		</Polygon>
	</Placemark>
	<Placemark id="03DE4FEF2E3D1F16D9BF">
		<name>SECCION 44, SANTA LUCIA</name>
		<LookAt>
			<longitude>-90.5139621498287</longitude>
			<latitude>19.8447307344965</latitude>
			<altitude>4.874749510741967</altitude>
			<heading>356.926281451346</heading>
			<tilt>0</tilt>
			<gx:fovy>35</gx:fovy>
			<range>1658.58307671966</range>
			<altitudeMode>absolute</altitudeMode>
		</LookAt>
		<styleUrl>#__managed_style_39C322789E3F80F05E3C</styleUrl>
		<Point>
			<coordinates>-90.51337429288978,19.84446611450924,3.394097894530216</coordinates>
		</Point>
	</Placemark>
	<Placemark id="03ED271F1B3D1F1BF7A6">
		<name>SECCION 45</name>
		<LookAt>
			<longitude>-90.51255379268774</longitude>
			<latitude>19.84689593204467</latitude>
			<altitude>7.657317719497754</altitude>
			<heading>356.9262449276554</heading>
			<tilt>0</tilt>
			<gx:fovy>35</gx:fovy>
			<range>863.4843381705286</range>
			<altitudeMode>absolute</altitudeMode>
		</LookAt>
		<styleUrl>#__managed_style_287CB5C3E83F80F05E47</styleUrl>
		<Polygon>
			<outerBoundaryIs>
				<LinearRing>
					<coordinates>
						-90.51310246963742,19.84789970929466,0 -90.51559173097469,19.84818425271509,0 -90.51687089346024,19.8483974071913,0 -90.51489131666419,19.84264828319506,0 -90.5129000554527,19.842556595314,0 -90.51365804392344,19.84342897570335,0 -90.51371641682317,19.84346010772092,0 -90.51393114470744,19.84360630570211,0 -90.51397163737316,19.84364272981847,0 -90.51411568277142,19.8437715767129,0 -90.51424196115704,19.84391841830885,0 -90.51443926426845,19.84414689148218,0 -90.51412286007734,19.84470966886281,0 -90.51392690512448,19.84501833231229,0 -90.51451612883065,19.84553330840169,0 -90.51446585822754,19.8457834209643,0 -90.51358084524229,19.8456398062586,0 -90.51310246963742,19.84789970929466,0 
					</coordinates>
				</LinearRing>
			</outerBoundaryIs>
		</Polygon>
	</Placemark>
	<Placemark id="0364C4F25C3D1F1C2FE3">
		<name>SECCION 45, SANTA LUCIA</name>
		<LookAt>
			<longitude>-90.51416688671843</longitude>
			<latitude>19.84524236823727</latitude>
			<altitude>5.276797364256193</altitude>
			<heading>356.9262434469773</heading>
			<tilt>0</tilt>
			<gx:fovy>35</gx:fovy>
			<range>1610.832401097869</range>
			<altitudeMode>absolute</altitudeMode>
		</LookAt>
		<styleUrl>#__managed_style_064DA0CB223F80F05E47</styleUrl>
		<Point>
			<coordinates>-90.5149151256565,19.84617392897552,4.964564554377233</coordinates>
		</Point>
	</Placemark>
	<Placemark id="0E3BE5D3A33D1F2277E1">
		<name>SECCION 60</name>
		<LookAt>
			<longitude>-90.51334046434938</longitude>
			<latitude>19.84240912899657</latitude>
			<altitude>3.246056314673447</altitude>
			<heading>356.9262098833775</heading>
			<tilt>0</tilt>
			<gx:fovy>35</gx:fovy>
			<range>670.2136148756109</range>
			<altitudeMode>absolute</altitudeMode>
		</LookAt>
		<styleUrl>#__managed_style_139AC4653D3F80F05E43</styleUrl>
		<Polygon>
			<outerBoundaryIs>
				<LinearRing>
					<coordinates>
						-90.51488989168485,19.84264850939593,0 -90.51412269145916,19.84019435409965,0 -90.5130283271785,19.84045747210871,0 -90.51279037581946,19.84046179578181,0 -90.51225720689979,19.84043372806764,0 -90.51205926453935,19.84012606001976,0 -90.51135659333185,19.84011782677526,0 -90.511121215158,19.83999618741527,0 -90.51094710349329,19.83992116724424,0 -90.51073634408965,19.83984511034103,0 -90.5103920430976,19.83980133525877,0 -90.5100842302343,19.83981123111389,0 -90.50975950313726,19.8398254289839,0 -90.50957211497418,19.83980819443175,0 -90.50910945272213,19.83952968094566,0 -90.50891767367612,19.83935790220707,0 -90.50859966549457,19.83968832297004,0 -90.5084798340275,19.83982664378231,0 -90.50821916255018,19.84219193610389,0 -90.51173546242973,19.8424843504517,0 -90.51488989168485,19.84264850939593,0 
					</coordinates>
				</LinearRing>
			</outerBoundaryIs>
		</Polygon>
	</Placemark>
	<Placemark id="07F15A8C0E3D1F232840">
		<name>SECCION 60, HUANAL, AVIACION</name>
		<LookAt>
			<longitude>-90.51248445003014</longitude>
			<latitude>19.84146702749436</latitude>
			<altitude>4.138624466396323</altitude>
			<heading>356.9262074727105</heading>
			<tilt>0</tilt>
			<gx:fovy>35</gx:fovy>
			<range>999.4165083164989</range>
			<altitudeMode>absolute</altitudeMode>
		</LookAt>
		<styleUrl>#__managed_style_39C322789E3F80F05E3C</styleUrl>
		<Point>
			<coordinates>-90.5119123247171,19.84128281660826,4.675005014630762</coordinates>
		</Point>
	</Placemark>
	<Placemark id="06246083E43D1F28B16C">
		<name>SECCION 61</name>
		<LookAt>
			<longitude>-90.50621425703501</longitude>
			<latitude>19.8408521014267</latitude>
			<altitude>6.91185033854357</altitude>
			<heading>356.9261850052907</heading>
			<tilt>0</tilt>
			<gx:fovy>35</gx:fovy>
			<range>432.242388034647</range>
			<altitudeMode>absolute</altitudeMode>
		</LookAt>
		<styleUrl>#__managed_style_0F66D823183F80F05E43</styleUrl>
		<Polygon>
			<outerBoundaryIs>
				<LinearRing>
					<coordinates>
						-90.50681505209891,19.84014189513081,0 -90.5065799610538,19.8400293247029,0 -90.5061432739175,19.83977621901163,0 -90.50579488968039,19.84044014288981,0 -90.50572275006016,19.84047763532181,0 -90.50565520196226,19.84050701207238,0 -90.50555749441284,19.84052768953909,0 -90.5054506695933,19.84053326622511,0 -90.50483691911471,19.84018192826887,0 -90.50456696546298,19.840780757836,0 -90.50472078137561,19.84101264079818,0 -90.50427287504037,19.84105602678846,0 -90.50370812283664,19.84124870567192,0 -90.50363031860167,19.84130143796985,0 -90.50268490108309,19.8414233864469,0 -90.50266958437074,19.8419015075165,0 -90.50267970820961,19.84198021368375,0 -90.50292404292568,19.84228083454148,0 -90.50356920861626,19.84315049822736,0 -90.50472028696277,19.84237991199327,0 -90.50495828955778,19.84227826996806,0 -90.50531833267685,19.84216358697696,0 -90.5058088771796,19.84205550523229,0 -90.50604052337555,19.84203343108993,0 -90.50700825141575,19.84211956124247,0 -90.50735776898398,19.84039039192178,0 -90.50681505209891,19.84014189513081,0 
					</coordinates>
				</LinearRing>
			</outerBoundaryIs>
		</Polygon>
	</Placemark>
	<Placemark id="0AF6E9E43B3D1F299A68">
		<name>SECCION 61, SANTA BARBARA I, SANTA BARBARA II</name>
		<LookAt>
			<longitude>-90.50719872208953</longitude>
			<latitude>19.84386848503606</latitude>
			<altitude>11.88418284469236</altitude>
			<heading>356.9261840269</heading>
			<tilt>0</tilt>
			<gx:fovy>35</gx:fovy>
			<range>2113.350012074516</range>
			<altitudeMode>absolute</altitudeMode>
		</LookAt>
		<styleUrl>#__managed_style_39C322789E3F80F05E3C</styleUrl>
		<Point>
			<coordinates>-90.50595402130321,19.84103461121058,6.546593004022265</coordinates>
		</Point>
	</Placemark>
	<Placemark id="0260F5723D3D1F357E47">
		<name>SECCION 62</name>
		<LookAt>
			<longitude>-90.50255016700434</longitude>
			<latitude>19.84374008055292</latitude>
			<altitude>12.14581682612311</altitude>
			<heading>357.8214062194616</heading>
			<tilt>0</tilt>
			<gx:fovy>35</gx:fovy>
			<range>132.5481711066459</range>
			<altitudeMode>absolute</altitudeMode>
		</LookAt>
		<styleUrl>#__managed_style_408937A1AC3F80F05E44</styleUrl>
		<Polygon>
			<outerBoundaryIs>
				<LinearRing>
					<coordinates>
						-90.50263296322788,19.84379029651756,0 -90.503570697901,19.84315202267735,0 -90.50291384822098,19.84226954051784,0 -90.50268020662128,19.84198128593505,0 -90.50266959994379,19.84189544864689,0 -90.5026898471564,19.84143094843441,0 -90.50281420984312,19.84047203452368,0 -90.50160931610179,19.83942088620435,0 -90.5013219609627,19.83930731308289,0 -90.50109322958048,19.83969861422143,0 -90.5000219711979,19.83917464765404,0 -90.49994105528447,19.83917140433124,0 -90.49970866022974,19.83919976986482,0 -90.49951624736529,19.8392125397021,0 -90.49932865864649,19.8392251451586,0 -90.49920150364916,19.83923283058969,0 -90.49912853052703,19.8392426871438,0 -90.49905037654611,19.83927029941512,0 -90.49889383403828,19.83937299425378,0 -90.49972715237284,19.83975088266491,0 -90.49942434334008,19.84006227918468,0 -90.49962441819598,19.84018192519834,0 -90.49868421412876,19.84156540600073,0 -90.49862408892093,19.84162159045691,0 -90.49855197165358,19.8416601626852,0 -90.49897586487107,19.84172466253592,0 -90.49920621513772,19.84177145726435,0 -90.49932328515555,19.84179777229986,0 -90.49950275139773,19.84178224956288,0 -90.49971335956819,19.84188276624301,0 -90.50078331755876,19.84267473868662,0 -90.49964115610302,19.8443615598008,0 -90.50010654127128,19.84548105680482,0 -90.50200841889325,19.84423664320864,0 -90.50240620804115,19.8440672692372,0 -90.50234262696375,19.84399617791826,0 -90.50240633900096,19.84395675313151,0 -90.5024206569087,19.84392523225608,0 -90.50242848231294,19.84389843794988,0 -90.50242307357668,19.84386742342089,0 -90.50263296322788,19.84379029651756,0 
					</coordinates>
				</LinearRing>
			</outerBoundaryIs>
		</Polygon>
	</Placemark>
	<Placemark id="023E676F2A3D1F35F5DC">
		<name>SECCION 62, ZAPATA, ESPERANZA</name>
		<LookAt>
			<longitude>-90.50088807060605</longitude>
			<latitude>19.84135041177645</latitude>
			<altitude>20.02094742054508</altitude>
			<heading>357.8214033193078</heading>
			<tilt>0</tilt>
			<gx:fovy>35</gx:fovy>
			<range>960.6481722609899</range>
			<altitudeMode>absolute</altitudeMode>
		</LookAt>
		<styleUrl>#__managed_style_39C322789E3F80F05E3C</styleUrl>
		<Point>
			<coordinates>-90.50107028736792,19.84130056743441,18.79259300023584</coordinates>
		</Point>
	</Placemark>
	<Placemark id="0855B17A1F3D1F3E26C3">
		<name>SECCION 63</name>
		<LookAt>
			<longitude>-90.49748970485814</longitude>
			<latitude>19.84594997601529</latitude>
			<altitude>12.31017895557437</altitude>
			<heading>358.1794686855966</heading>
			<tilt>0</tilt>
			<gx:fovy>35</gx:fovy>
			<range>572.1230476523488</range>
			<altitudeMode>absolute</altitudeMode>
		</LookAt>
		<styleUrl>#__managed_style_0E8C93E5F43F80F05E41</styleUrl>
		<Polygon>
			<outerBoundaryIs>
				<LinearRing>
					<coordinates>
						-90.49720300681618,19.84642687679337,0 -90.49818969398201,19.84648352848973,0 -90.49851124339932,19.84644619302734,0 -90.4987212000815,19.84634343980386,0 -90.49894962272477,19.84623858446271,0 -90.5001064041557,19.84548251688391,0 -90.49964321889969,19.84435591231725,0 -90.50078295503191,19.84267559936922,0 -90.49972016578486,19.84188953267221,0 -90.49950579224304,19.8417811918659,0 -90.4993231888924,19.84179714685682,0 -90.49895087529788,19.84172016026313,0 -90.49855393673677,19.84166037396645,0 -90.49811176357963,19.84235027166051,0 -90.49773750989553,19.84278328827978,0 -90.49764483171774,19.84323671056473,0 -90.49744237146294,19.84330730264493,0 -90.49734619244835,19.84339030964541,0 -90.49683223267984,19.84245312850223,0 -90.4958730054434,19.84412005941492,0 -90.49482259996161,19.84558726225343,0 -90.49503427336643,19.84576528601275,0 -90.49523876802581,19.84585820064853,0 -90.49549669592452,19.84604243264598,0 -90.49567103217979,19.84618257841542,0 -90.49573759711961,19.84620284557602,0 -90.49579122947019,19.84621075556849,0 -90.49583836050294,19.84620427122253,0 -90.49591682649995,19.84617440972269,0 -90.49622702853047,19.84602076426255,0 -90.4964499628979,19.84594078960719,0 -90.49660257647054,19.84591151515972,0 -90.49680998048929,19.84589756585155,0 -90.49700538762954,19.84591745239326,0 -90.49711616505493,19.84594172269529,0 -90.49721532301082,19.84600364767986,0 -90.49721453038896,19.8463734926627,0 -90.49720300681618,19.84642687679337,0 
					</coordinates>
				</LinearRing>
			</outerBoundaryIs>
		</Polygon>
	</Placemark>
	<Placemark id="05FEAC0DD13D1F3E8C9B">
		<name>SECCION 63, ESPERANZA, FATIMA</name>
		<LookAt>
			<longitude>-90.49940446242874</longitude>
			<latitude>19.84506282236595</latitude>
			<altitude>12.35793409034899</altitude>
			<heading>358.1794677526149</heading>
			<tilt>0</tilt>
			<gx:fovy>35</gx:fovy>
			<range>1470.720475393755</range>
			<altitudeMode>absolute</altitudeMode>
		</LookAt>
		<styleUrl>#__managed_style_39C322789E3F80F05E3C</styleUrl>
		<Point>
			<coordinates>-90.49814780153248,19.84468254979937,17.99639569253707</coordinates>
		</Point>
	</Placemark>
	<Placemark id="0C5A71D82F3D1F4F9498">
		<name>SECCION 64</name>
		<LookAt>
			<longitude>-90.49550080173381</longitude>
			<latitude>19.84215077788083</latitude>
			<altitude>52.45968664072828</altitude>
			<heading>358.1794200126238</heading>
			<tilt>0</tilt>
			<gx:fovy>35</gx:fovy>
			<range>277.9130447520583</range>
			<altitudeMode>absolute</altitudeMode>
		</LookAt>
		<styleUrl>#__managed_style_2413F4E2973F80F05E41</styleUrl>
		<Polygon>
			<outerBoundaryIs>
				<LinearRing>
					<coordinates>
						-90.49574877987605,19.84223973283801,0 -90.4963917931245,19.84164575503895,0 -90.49636893594183,19.8415130617593,0 -90.49570966322297,19.84118688463338,0 -90.49625420106089,19.83996777990139,0 -90.49627546048424,19.83981104778386,0 -90.49620069956961,19.8395867934688,0 -90.49672407727542,19.83940362002123,0 -90.4964955159686,19.83879181150897,0 -90.49624347504015,19.83819636166384,0 -90.49611786511298,19.83806060310577,0 -90.49583145585687,19.83789361915598,0 -90.49594135398682,19.83756921894962,0 -90.49594789403665,19.83732178339299,0 -90.49589586111641,19.83706246080791,0 -90.49583049232027,19.83689743078927,0 -90.49570563451201,19.83674354425935,0 -90.49552463421477,19.83656168077104,0 -90.49538743717,19.83650929276557,0 -90.4952967235627,19.83665549986517,0 -90.4950974759942,19.83701416481427,0 -90.49489853836316,19.8373414007178,0 -90.49451690284722,19.83777106458724,0 -90.49420064418105,19.83807922964549,0 -90.49386554575469,19.83773584169814,0 -90.4932307646729,19.83838390837583,0 -90.49285083082457,19.8380881515482,0 -90.49176237381694,19.83927841268203,0 -90.49132172270937,19.83981058784828,0 -90.49316292066727,19.84120847305001,0 -90.49333172302073,19.84134231450737,0 -90.49342749520349,19.84126719396127,0 -90.49373531709169,19.84147817132883,0 -90.49418879202547,19.84094102542648,0 -90.49490522213242,19.84140989351811,0 -90.49475158741905,19.84161531005257,0 -90.49574877987605,19.84223973283801,0 
					</coordinates>
				</LinearRing>
			</outerBoundaryIs>
		</Polygon>
	</Placemark>
	<Placemark id="052FD08D133D1F500524">
		<name>SECCION 64, CIUDAD CONCORDIA, ESPERANZA</name>
		<LookAt>
			<longitude>-90.49646126322497</longitude>
			<latitude>19.8401069763586</latitude>
			<altitude>50.63578357569673</altitude>
			<heading>358.1794175941803</heading>
			<tilt>0</tilt>
			<gx:fovy>35</gx:fovy>
			<range>1323.265329950082</range>
			<altitudeMode>absolute</altitudeMode>
		</LookAt>
		<styleUrl>#__managed_style_39C322789E3F80F05E3C</styleUrl>
		<Point>
			<coordinates>-90.49427535681171,19.83938564967091,30.1010710264181</coordinates>
		</Point>
	</Placemark>
	<Placemark id="068B7B2D823D1F58B3AC">
		<name>SECCION 65</name>
		<LookAt>
			<longitude>-90.49834359882776</longitude>
			<latitude>19.84082533621218</latitude>
			<altitude>45.21766943435817</altitude>
			<heading>358.179370869246</heading>
			<tilt>0</tilt>
			<gx:fovy>35</gx:fovy>
			<range>1845.081351836853</range>
			<altitudeMode>absolute</altitudeMode>
		</LookAt>
		<styleUrl>#__managed_style_20719EBC8C3F80F05E40</styleUrl>
		<Polygon>
			<outerBoundaryIs>
				<LinearRing>
					<coordinates>
						-90.49475149740465,19.84161528701834,0 -90.49422848590504,19.84233812584476,0 -90.49382394490648,19.84276145165492,0 -90.49587265098499,19.84412168653649,0 -90.49683041809482,19.84245475799725,0 -90.49734552973671,19.84338988265918,0 -90.49744092053618,19.84330753478527,0 -90.49764469218302,19.84323683340681,0 -90.49773770335106,19.84278313418313,0 -90.49810929108595,19.84235348253727,0 -90.49855222825708,19.84166127134332,0 -90.49862288905662,19.84162218987374,0 -90.49868326089189,19.84156668636411,0 -90.49962394892763,19.8401840514489,0 -90.4994245204016,19.84006267974788,0 -90.49972800456644,19.83975060428832,0 -90.4988924426783,19.8393720553648,0 -90.49905158522431,19.83927079749323,0 -90.49912910267633,19.83924166184456,0 -90.49919705507872,19.83923295253902,0 -90.49970734692997,19.83919997672929,0 -90.49993756214326,19.83917188619401,0 -90.50002129709627,19.83917450904204,0 -90.49919016893367,19.83839488025751,0 -90.49810487852166,19.83715478562273,0 -90.49777694444627,19.83687954498789,0 -90.49772314819654,19.83696329212858,0 -90.49769647944402,19.83715574750034,0 -90.4977132081971,19.83749092665599,0 -90.49771357463794,19.83764602540111,0 -90.49741835445219,19.83882122135331,0 -90.49730024867642,19.8394684834278,0 -90.49711160011161,19.83993301201932,0 -90.4967790022551,19.84062258869552,0 -90.49658367387029,19.84053720893899,0 -90.4967477138386,19.84012779631773,0 -90.49680139569875,19.83993169399286,0 -90.49679993948111,19.83973126754788,0 -90.49678490536699,19.83959753709704,0 -90.49676471640375,19.8394685732159,0 -90.49672381632567,19.8394034137915,0 -90.49620054794011,19.83958780175279,0 -90.49627547293713,19.83981104163433,0 -90.4962543477874,19.83996768487221,0 -90.49570880410818,19.84118783415375,0 -90.49636825184693,19.84151386547515,0 -90.49639054104462,19.84164945308927,0 -90.49574912663722,19.84223885267667,0 -90.49475149740465,19.84161528701834,0 
					</coordinates>
				</LinearRing>
			</outerBoundaryIs>
		</Polygon>
	</Placemark>
	<Placemark id="0291345D4E3D1F5988F1">
		<name>SECCION 65, ESPERANZA, FATIMA</name>
		<LookAt>
			<longitude>-90.49783396215479</longitude>
			<latitude>19.84062804921029</latitude>
			<altitude>49.71645212663579</altitude>
			<heading>358.17936300955</heading>
			<tilt>0</tilt>
			<gx:fovy>35</gx:fovy>
			<range>1337.068332052004</range>
			<altitudeMode>absolute</altitudeMode>
		</LookAt>
		<styleUrl>#__managed_style_39C322789E3F80F05E3C</styleUrl>
		<Point>
			<coordinates>-90.49806995686041,19.84080764164548,48.01453441934404</coordinates>
		</Point>
	</Placemark>
	<Placemark id="0281ED333E3D1F5EC550">
		<name>SECCION 66</name>
		<LookAt>
			<longitude>-90.50537164496451</longitude>
			<latitude>19.83859644425572</latitude>
			<altitude>8.959846969384825</altitude>
			<heading>358.1793325828305</heading>
			<tilt>0</tilt>
			<gx:fovy>35</gx:fovy>
			<range>1355.948062807292</range>
			<altitudeMode>absolute</altitudeMode>
		</LookAt>
		<styleUrl>#__managed_style_13197BBEA03F80F05E46</styleUrl>
		<Polygon>
			<outerBoundaryIs>
				<LinearRing>
					<coordinates>
						-90.50247647556222,19.84017808765095,0 -90.50281414419285,19.84047210169944,0 -90.50269149105335,19.8414229167645,0 -90.5036315937875,19.84130104820472,0 -90.5037119623646,19.84124745085505,0 -90.50427568088358,19.84105586088818,0 -90.50472123018616,19.84101273530276,0 -90.50456699179325,19.84078108037038,0 -90.50483660211177,19.84018433829461,0 -90.50545023022669,19.84053352103847,0 -90.50556013337524,19.84052773024214,0 -90.50565646381682,19.84050647587704,0 -90.50572533198751,19.84047669719176,0 -90.50579594641395,19.84043966758666,0 -90.50614685197822,19.83977898329205,0 -90.50658659791804,19.84003450461294,0 -90.50735515681708,19.84038879768497,0 -90.50773783308172,19.83865372196478,0 -90.50783515331548,19.83843013455733,0 -90.50605029137623,19.83739048608731,0 -90.5052074401362,19.83685172922072,0 -90.5051659886703,19.83671371308769,0 -90.50438203919215,19.83626468308078,0 -90.50247647556222,19.84017808765095,0 
					</coordinates>
				</LinearRing>
			</outerBoundaryIs>
		</Polygon>
	</Placemark>
	<Placemark id="0C83A36E643D1F5F299E">
		<name>SECCION 66, EL CARMELO, SAN CARLOS</name>
		<LookAt>
			<longitude>-90.50537164496451</longitude>
			<latitude>19.83859644425572</latitude>
			<altitude>8.959846969384825</altitude>
			<heading>358.1793325828305</heading>
			<tilt>0</tilt>
			<gx:fovy>35</gx:fovy>
			<range>1355.948062807292</range>
			<altitudeMode>absolute</altitudeMode>
		</LookAt>
		<styleUrl>#__managed_style_39C322789E3F80F05E3C</styleUrl>
		<Point>
			<coordinates>-90.50518351827888,19.83892385509343,8.106676697752381</coordinates>
		</Point>
	</Placemark>
	<Placemark id="0752800B203D1F676B44">
		<name>SECCION 67</name>
		<LookAt>
			<longitude>-90.50781631923641</longitude>
			<latitude>19.84183696979452</latitude>
			<altitude>8.137309979396241</altitude>
			<heading>358.1792917564184</heading>
			<tilt>0</tilt>
			<gx:fovy>35</gx:fovy>
			<range>526.2136005236972</range>
			<altitudeMode>absolute</altitudeMode>
		</LookAt>
		<styleUrl>#__managed_style_40DF249EA43F80F05E40</styleUrl>
		<Polygon>
			<outerBoundaryIs>
				<LinearRing>
					<coordinates>
						-90.50701189077169,19.84211973404449,0 -90.50821898999384,19.84219682889746,0 -90.50848023369429,19.83982518241456,0 -90.50891266727587,19.83935960479172,0 -90.50910677153898,19.83952846793309,0 -90.50957186296161,19.83980851756589,0 -90.50975610076489,19.83982593363696,0 -90.51038469275318,19.83980140160281,0 -90.51073476987385,19.8398447820992,0 -90.51094903315375,19.83992212478481,0 -90.51111707346863,19.83999455444708,0 -90.51135794270249,19.84011882590188,0 -90.51206096339331,19.84012500035713,0 -90.51225601262857,19.84043371390897,0 -90.5127832018868,19.84046140433622,0 -90.51302644334402,19.84045829576177,0 -90.51357333528985,19.84032744164081,0 -90.51320063917302,19.83917718578605,0 -90.51311402904827,19.83915863670647,0 -90.51287584284091,19.83888812823934,0 -90.51251394415927,19.83794151876996,0 -90.51216257414902,19.83807744893365,0 -90.51183364990706,19.83831714017187,0 -90.51194293427665,19.83847558804544,0 -90.51202609980662,19.83857103641674,0 -90.51149898117697,19.83876640923525,0 -90.51084088579346,19.83820073257386,0 -90.51051385014186,19.83860617824983,0 -90.50876757650411,19.83737551327831,0 -90.50783533221662,19.83843224842508,0 -90.50773913949173,19.83865339564985,0 -90.50735679004949,19.84038534845018,0 -90.50701189077169,19.84211973404449,0 
					</coordinates>
				</LinearRing>
			</outerBoundaryIs>
		</Polygon>
	</Placemark>
	<Placemark id="0846F34BF73D1F67CC1B">
		<name>SECCION 67, AVIACION, HUANAL, CUATRO CAMINOS</name>
		<LookAt>
			<longitude>-90.5125018516063</longitude>
			<latitude>19.83925926383419</latitude>
			<altitude>5.145331349831405</altitude>
			<heading>358.1792901500597</heading>
			<tilt>0</tilt>
			<gx:fovy>35</gx:fovy>
			<range>2545.600002361753</range>
			<altitudeMode>absolute</altitudeMode>
		</LookAt>
		<styleUrl>#__managed_style_39C322789E3F80F05E3C</styleUrl>
		<Point>
			<coordinates>-90.51049369363214,19.83894503003826,6.470183226611043</coordinates>
		</Point>
	</Placemark>
	<Placemark id="0DDC3A62CD3D1F766407">
		<name>SECCION 79</name>
		<LookAt>
			<longitude>-90.51216924832863</longitude>
			<latitude>19.83989583875397</latitude>
			<altitude>6.116943075597634</altitude>
			<heading>358.1792129431927</heading>
			<tilt>0</tilt>
			<gx:fovy>35</gx:fovy>
			<range>428.4299047159584</range>
			<altitudeMode>absolute</altitudeMode>
		</LookAt>
		<styleUrl>#__managed_style_11C6D048FA3F80F05E47</styleUrl>
		<Polygon>
			<outerBoundaryIs>
				<LinearRing>
					<coordinates>
						-90.513573905027,19.84032400011282,0 -90.51412451298319,19.8401941974942,0 -90.51251090374669,19.83505460572573,0 -90.511542261215,19.83217624856024,0 -90.5104115337749,19.82869660489333,0 -90.50940891368516,19.82469443266391,0 -90.50815153502182,19.81967957064046,0 -90.50694848951734,19.81478700162816,0 -90.50149459497024,19.79305348172048,0 -90.49977610067704,19.79275102103434,0 -90.49913139489738,19.7926446587589,0 -90.49874960964115,19.79261855471427,0 -90.49828559341323,19.79260587309977,0 -90.49799529852682,19.79261998169722,0 -90.49755907236867,19.79265975600217,0 -90.49703903487632,19.79274484695685,0 -90.49594511017177,19.79295252670628,0 -90.49358895852534,19.79351994024534,0 -90.49184192682468,19.79393728489873,0 -90.49048023066487,19.79440597201333,0 -90.49019760697358,19.79456289205979,0 -90.48978338045143,19.79489843112657,0 -90.48943821867182,19.79523243045712,0 -90.48897983564277,19.79591094664675,0 -90.48839906049787,19.79727910365694,0 -90.48742532949598,19.79934192611796,0 -90.48651538271093,19.80048783906046,0 -90.48507862832487,19.80090604835067,0 -90.48531099500363,19.80386115158005,0 -90.4852388327165,19.80517963502729,0 -90.48531125543845,19.80579147939773,0 -90.48758359926855,19.81519174077826,0 -90.49061631120614,19.81577326299514,0 -90.49387054794451,19.81737892790961,0 -90.50238096463012,19.82998599975109,0 -90.5016932738603,19.83315386386803,0 -90.5010721595031,19.83457354053811,0 -90.50438663214746,19.83626353710562,0 -90.50516507687618,19.83671497579196,0 -90.50520931559201,19.8368523185262,0 -90.506074580659,19.83740774442362,0 -90.50783518843525,19.83843198038899,0 -90.50876528358027,19.83737784080934,0 -90.5105156962973,19.83860646665635,0 -90.51083900370035,19.83820286448538,0 -90.51149836579124,19.83876662140387,0 -90.51202675519322,19.83857088000081,0 -90.51193497608111,19.83846479042773,0 -90.5118338794793,19.83831846316989,0 -90.5121653573392,19.83807619124318,0 -90.51251449237591,19.8379420291359,0 -90.51287554808529,19.83888495890197,0 -90.51311085524937,19.83915604791558,0 -90.51320362761487,19.83918033508867,0 -90.513573905027,19.84032400011282,0 
					</coordinates>
				</LinearRing>
			</outerBoundaryIs>
		</Polygon>
	</Placemark>
	<Placemark id="0E8DCC12B93D1F76BFEE">
		<name>SECCION 79, SIGLO XXI HEROE DE NACOZARI, VILLAS DEL VALLE, VIVAH 2DA ETAPA, VIVAH 1RA ETAPA</name>
		<LookAt>
			<longitude>-90.49874351629266</longitude>
			<latitude>19.81133184815122</latitude>
			<altitude>10.37979280025118</altitude>
			<heading>358.1792109436767</heading>
			<tilt>0</tilt>
			<gx:fovy>35</gx:fovy>
			<range>9148.361637600465</range>
			<altitudeMode>absolute</altitudeMode>
		</LookAt>
		<styleUrl>#__managed_style_39C322789E3F80F05E3C</styleUrl>
		<Point>
			<coordinates>-90.49967411251006,19.81122160613478,8.626687094575532</coordinates>
		</Point>
	</Placemark>
	<Placemark id="0643676EC03D20A0E048">
		<name>SECCION 80</name>
		<LookAt>
			<longitude>-90.50255401802896</longitude>
			<latitude>19.83919230269722</latitude>
			<altitude>6.928741224859614</altitude>
			<heading>0</heading>
			<tilt>0</tilt>
			<gx:fovy>30</gx:fovy>
			<range>585.991503294863</range>
			<altitudeMode>absolute</altitudeMode>
		</LookAt>
		<styleUrl>#__managed_style_3AAA854D053F80F05E44</styleUrl>
		<Polygon>
			<outerBoundaryIs>
				<LinearRing>
					<coordinates>
						-90.50346473945575,19.83812733980649,0 -90.50232551681745,19.83740717674563,0 -90.5020413696349,19.83791294568933,0 -90.50081349974256,19.8373325565924,0 -90.50052874465275,19.83697255869624,0 -90.49933367456831,19.83780454221162,0 -90.50009147891247,19.83861071535297,0 -90.50031853485299,19.83871163006305,0 -90.5000704958679,19.83919783391767,0 -90.50109199289128,19.83970008698507,0 -90.50132351678717,19.83930727229327,0 -90.50160879176397,19.83941955979592,0 -90.50247644764391,19.84017668748964,0 -90.50346473945575,19.83812733980649,0 
					</coordinates>
				</LinearRing>
			</outerBoundaryIs>
		</Polygon>
	</Placemark>
	<Placemark id="03BF301A1A3D20A18958">
		<name>SECCION 80, JUSTO SIERRA MENDEZ (INFONAVIT)</name>
		<LookAt>
			<longitude>-90.50201800644797</longitude>
			<latitude>19.83817060807295</latitude>
			<altitude>7.822920181542488</altitude>
			<heading>0</heading>
			<tilt>0</tilt>
			<gx:fovy>30</gx:fovy>
			<range>1450.428116312687</range>
			<altitudeMode>absolute</altitudeMode>
		</LookAt>
		<styleUrl>#__managed_style_39C322789E3F80F05E3C</styleUrl>
		<Point>
			<coordinates>-90.5014135460375,19.83825921573748,7.574339143908215</coordinates>
		</Point>
	</Placemark>
	<Placemark id="003A5C7D933D20AAE586">
		<name>SECCION 82</name>
		<LookAt>
			<longitude>-90.4961194633039</longitude>
			<latitude>19.82478592734373</latitude>
			<altitude>4.303939930232579</altitude>
			<heading>0</heading>
			<tilt>0</tilt>
			<gx:fovy>30</gx:fovy>
			<range>1886.178202234441</range>
			<altitudeMode>absolute</altitudeMode>
		</LookAt>
		<styleUrl>#__managed_style_06ED0636393F80F05E44</styleUrl>
		<Polygon>
			<outerBoundaryIs>
				<LinearRing>
					<coordinates>
						-90.49767267260975,19.82300555965844,0 -90.48948273691335,19.82964738995848,0 -90.49133863367159,19.83217652925669,0 -90.49093797696132,19.83230662503684,0 -90.49085313230044,19.83215972335818,0 -90.49034198757356,19.83243131970009,0 -90.49014819607372,19.83256003200479,0 -90.48908237925896,19.8346130961583,0 -90.4915757775033,19.83583179481888,0 -90.49139627222922,19.83612331603294,0 -90.49126652734898,19.83630572377526,0 -90.49114170640017,19.83645394360238,0 -90.48969190933757,19.83792526223717,0 -90.491647054244,19.83941122240808,0 -90.49285062007722,19.83808833871763,0 -90.49323050683522,19.83838302222209,0 -90.49386393357553,19.83773490384112,0 -90.49420085195887,19.83807902611596,0 -90.49451782365074,19.83776997690611,0 -90.49490278769868,19.8373407585035,0 -90.49538374255268,19.83651028936609,0 -90.49370286563817,19.8359284613472,0 -90.4938431154811,19.83504303336419,0 -90.49397635648262,19.83476226361285,0 -90.49436359560605,19.83410595135966,0 -90.49601232594379,19.83162787857875,0 -90.4962722731773,19.83133708719984,0 -90.49651035581432,19.83117918216027,0 -90.49685596096595,19.83114172756661,0 -90.49723217826514,19.83121882863806,0 -90.49742443171822,19.83132671744028,0 -90.49838529602619,19.8330669938935,0 -90.49845954278226,19.83278658987013,0 -90.50091619942334,19.82784181907107,0 -90.49767267260975,19.82300555965844,0 
					</coordinates>
				</LinearRing>
			</outerBoundaryIs>
		</Polygon>
	</Placemark>
	<Placemark id="08D1C269F43D20AB53FE">
		<name>SECCION 82 CD CONCORDIA, MURALLAS</name>
		<LookAt>
			<longitude>-90.50103964044743</longitude>
			<latitude>19.83639666358677</latitude>
			<altitude>8.625380836537396</altitude>
			<heading>0</heading>
			<tilt>0</tilt>
			<gx:fovy>30</gx:fovy>
			<range>6504.54220056301</range>
			<altitudeMode>absolute</altitudeMode>
		</LookAt>
		<styleUrl>#__managed_style_39C322789E3F80F05E3C</styleUrl>
		<Point>
			<coordinates>-90.49393035192659,19.8313441568184,20.65793553763346</coordinates>
		</Point>
	</Placemark>
	<Placemark id="0ADDED9EF73D20B86A60">
		<name>SECCION 83</name>
		<LookAt>
			<longitude>-90.49857475861984</longitude>
			<latitude>19.82913356441588</latitude>
			<altitude>8.629852531636921</altitude>
			<heading>0</heading>
			<tilt>0</tilt>
			<gx:fovy>30</gx:fovy>
			<range>833.2577818726713</range>
			<altitudeMode>absolute</altitudeMode>
		</LookAt>
		<styleUrl>#__managed_style_3EA5D34DC13F80F05E3F</styleUrl>
		<Polygon>
			<outerBoundaryIs>
				<LinearRing>
					<coordinates>
						-90.49845883979152,19.83278912472798,0 -90.49838514105971,19.83306647321544,0 -90.49742392104075,19.83132646250611,0 -90.49723201192803,19.83121876088513,0 -90.49685935141844,19.83114055657914,0 -90.49651274101188,19.8311767912638,0 -90.49627130052775,19.83133703139515,0 -90.49601098992241,19.83163079688559,0 -90.49436497100278,19.83410076644181,0 -90.49397778745377,19.83475753335797,0 -90.49384096928986,19.83504848718785,0 -90.49370383957601,19.83592903995033,0 -90.49538371496463,19.83650988854961,0 -90.49552424775167,19.8365600660728,0 -90.49570164965976,19.83674020394448,0 -90.49583117731768,19.83689406042165,0 -90.49589716118409,19.8370660129345,0 -90.49594761205638,19.83732573492997,0 -90.49594100770399,19.83756927188866,0 -90.49583156269154,19.83789345652724,0 -90.49611726995298,19.83805979020949,0 -90.49624414816627,19.83819659574629,0 -90.49650494063076,19.83881607431562,0 -90.49672375050028,19.83940332159142,0 -90.49676461010122,19.83946895419364,0 -90.49678476895126,19.83959644025546,0 -90.49679998831482,19.83973059032687,0 -90.49680119936157,19.83993211096073,0 -90.49674786790457,19.84012758354541,0 -90.49658387567008,19.84053697963162,0 -90.49677892395628,19.84062061994941,0 -90.49711154426652,19.83993280420409,0 -90.49718702244301,19.83974709149534,0 -90.4973011123883,19.83946714570174,0 -90.49741770641523,19.83882313588805,0 -90.49744634620903,19.83871502102688,0 -90.49771321148893,19.83764543066354,0 -90.49771324060572,19.83749019644951,0 -90.49771142406534,19.83745771546758,0 -90.49769655875265,19.83715521874802,0 -90.49772293148079,19.83696374460404,0 -90.49777671507582,19.83687937571796,0 -90.49810540796065,19.83715547140973,0 -90.49837355006299,19.83746154833106,0 -90.49918953943499,19.83839464883755,0 -90.49976981357639,19.83893636212326,0 -90.50001931927889,19.83917419841655,0 -90.50007029748053,19.83919746399588,0 -90.50031880591139,19.83871135236095,0 -90.5000918109254,19.83861090473212,0 -90.49933770863429,19.83780305683745,0 -90.50052900159831,19.83697290161552,0 -90.5008136785807,19.83733279475571,0 -90.50204112019763,19.83791046232234,0 -90.50232679230494,19.83740917480878,0 -90.50346954684704,19.83812978256005,0 -90.50437963806746,19.83626205027009,0 -90.50107335151421,19.83457150503745,0 -90.50169300830433,19.83315637341769,0 -90.50237807781636,19.82998096529479,0 -90.50092041261307,19.82784070367571,0 -90.49845883979152,19.83278912472798,0 
					</coordinates>
				</LinearRing>
			</outerBoundaryIs>
		</Polygon>
	</Placemark>
	<Placemark id="0E347CBC6A3D20B8A794">
		<name>SECCION 83, ESPERANZA, SANTA MARIA, COLONIA MEXICO, JUSTICIA SOCIAL, QUINTA DE LOS ESPAÑOLES, JUSTO SIERRA MENDEZ (INFONAVIT)</name>
		<LookAt>
			<longitude>-90.50267341381972</longitude>
			<latitude>19.83317521085161</latitude>
			<altitude>10.61263691563421</altitude>
			<heading>0</heading>
			<tilt>0</tilt>
			<gx:fovy>30</gx:fovy>
			<range>6581.286384196721</range>
			<altitudeMode>absolute</altitudeMode>
		</LookAt>
		<styleUrl>#__managed_style_39C322789E3F80F05E3C</styleUrl>
		<Point>
			<coordinates>-90.49860637603247,19.83481180356334,11.27675668752783</coordinates>
		</Point>
	</Placemark>
	<Placemark id="0A20831C373D20D2DA3B">
		<name>SECCION 125, CHINA, SAN ANTONIO EBULA</name>
		<LookAt>
			<longitude>-90.49923017548986</longitude>
			<latitude>19.79335699038507</latitude>
			<altitude>15.61162639980604</altitude>
			<heading>0</heading>
			<tilt>0</tilt>
			<gx:fovy>30</gx:fovy>
			<range>694.7722283156327</range>
			<altitudeMode>absolute</altitudeMode>
		</LookAt>
		<styleUrl>#__managed_style_3EA5D34DC13F80F05E3F</styleUrl>
		<Polygon>
			<outerBoundaryIs>
				<LinearRing>
					<coordinates>
						-90.50149539539667,19.79304928379914,0 -90.50243217595811,19.79322929393871,0 -90.50221323229519,19.79254909530974,0 -90.50617460123235,19.77947834677568,0 -90.50701282362608,19.76990818805592,0 -90.50442628104724,19.76978257838857,0 -90.50256523850321,19.76989923258931,0 -90.50116713700707,19.77047319333483,0 -90.50081344725042,19.77078538906429,0 -90.50076403172538,19.77102440025442,0 -90.49993433547542,19.771150076128,0 -90.49973132968732,19.77111537694729,0 -90.49947378881676,19.77088211948697,0 -90.49833705624182,19.77048424737891,0 -90.49736562123339,19.77045598063744,0 -90.4962859297741,19.77056223929065,0 -90.49413295548575,19.77124490839448,0 -90.49429833302037,19.77209884327067,0 -90.49391652097623,19.77204049081789,0 -90.49182358801063,19.77271059426935,0 -90.49158069877916,19.77149545984574,0 -90.49036437412889,19.77190473432223,0 -90.48945042295195,19.76814116191228,0 -90.43400145469028,19.76880128816766,0 -90.43445057122226,19.81743676741086,0 -90.47713792120173,19.82388253405676,0 -90.48948335171336,19.82964318318412,0 -90.49766812209722,19.82300709935651,0 -90.49447912274253,19.81827989667719,0 -90.49386987419025,19.81737878871881,0 -90.49061594982619,19.81577270442357,0 -90.48758336450152,19.81519146366767,0 -90.48531473702894,19.80581858697799,0 -90.48523846090917,19.80518028096551,0 -90.48531088900843,19.803860991101,0 -90.48507863226726,19.8009064966522,0 -90.4865152069155,19.80048792807474,0 -90.48742545668931,19.79934121076923,0 -90.48841598452927,19.7972406758451,0 -90.48881925563771,19.79628798564923,0 -90.48897297567719,19.7959245900563,0 -90.48943668107418,19.79523574158523,0 -90.48978069504652,19.79490045269358,0 -90.49020066286296,19.79456113929548,0 -90.49048110146055,19.79440532799298,0 -90.49112838719853,19.79418377708313,0 -90.49183352943365,19.79393768732148,0 -90.49603172166105,19.79293288868854,0 -90.49756245180343,19.79265837893743,0 -90.49799960502075,19.79261934156361,0 -90.4982840614517,19.79260565773527,0 -90.49873401949709,19.79261610644164,0 -90.4991362387385,19.79264499244193,0 -90.50149539539667,19.79304928379914,0 
					</coordinates>
				</LinearRing>
			</outerBoundaryIs>
		</Polygon>
	</Placemark>
	<Placemark id="0B14B539A93D3659B59C">
		<name>SECCION 125, CHINA, SAN ANTONIO EBULA</name>
		<LookAt>
			<longitude>-90.49445337468717</longitude>
			<latitude>19.78070842270848</latitude>
			<altitude>14.00345348510624</altitude>
			<heading>0</heading>
			<tilt>0</tilt>
			<gx:fovy>30</gx:fovy>
			<range>2591.460498400556</range>
			<altitudeMode>absolute</altitudeMode>
		</LookAt>
		<styleUrl>#__managed_style_39C322789E3F80F05E3C</styleUrl>
		<Point>
			<coordinates>-90.4978884630126,19.77846992140715,13.18189985965885</coordinates>
		</Point>
	</Placemark>
	<Placemark id="034DE545B43E5BBB0513">
		<name>563</name>
		<LookAt>
			<longitude>-90.50328082535377</longitude>
			<latitude>19.82125088795656</latitude>
			<altitude>7.167238205924975</altitude>
			<heading>-0.2505172015510342</heading>
			<tilt>0.1458998868194967</tilt>
			<gx:fovy>35</gx:fovy>
			<range>8136.955727976749</range>
			<altitudeMode>absolute</altitudeMode>
		</LookAt>
		<styleUrl>#__managed_style_40DF249EA43F80F05E40</styleUrl>
		<Polygon>
			<outerBoundaryIs>
				<LinearRing>
					<coordinates>
						-90.50658342122982,19.81421802453024,0 -90.505741974137,19.81446378252946,0 -90.5060905763911,19.81582252470005,0 -90.50401653725496,19.81630303783215,0 -90.50389724717715,19.81625193142073,0 -90.50384514188683,19.8160062021948,0 -90.50031773351454,19.81681710714311,0 -90.50316932185474,19.82783186216481,0 -90.50684951857812,19.83332490621601,0 -90.50598402055907,19.83382792100986,0 -90.50538998370864,19.83298521639,0 -90.50501531190322,19.83321427755689,0 -90.50534772430618,19.83371735653892,0 -90.5036706212092,19.83467958192687,0 -90.50169835709849,19.83318050612061,0 -90.50103020194889,19.83461518338677,0 -90.50349623216196,19.83574828628511,0 -90.5052134093245,19.83672112723151,0 -90.50523920987688,19.83685218847402,0 -90.50786063491772,19.83843949888548,0 -90.50876161714076,19.83737313441615,0 -90.51051163582645,19.83861059121257,0 -90.51084976425498,19.83820004037814,0 -90.51148029683341,19.83876718099772,0 -90.51202329238582,19.83857219748314,0 -90.51193996169077,19.83848032482712,0 -90.51182154724249,19.83831693167732,0 -90.51215742979657,19.8380751729871,0 -90.51252536867671,19.83792075212771,0 -90.51285271980778,19.83885457696804,0 -90.51310364927836,19.83915327387905,0 -90.5131910761895,19.83918828567143,0 -90.51357805625646,19.84030496269786,0 -90.51414565408106,19.84015523949088,0 -90.50658342122982,19.81421802453024,0 
					</coordinates>
				</LinearRing>
			</outerBoundaryIs>
		</Polygon>
	</Placemark>
	<Placemark id="03B23EC1F93E5BBB4AC8">
		<name>SECCION 563, CUATRO CAMINOS, FRACC. BELLO HORIZONTE, COL. CUATRO CAMINOS, COL. AVIACION, COL. HEROES DE NACOZARI</name>
		<LookAt>
			<longitude>-90.50328002460954</longitude>
			<latitude>19.8212477576342</latitude>
			<altitude>7.179932684890529</altitude>
			<heading>-0.2505172258864758</heading>
			<tilt>0.1458998880460389</tilt>
			<gx:fovy>35</gx:fovy>
			<range>8136.943119362697</range>
			<altitudeMode>absolute</altitudeMode>
		</LookAt>
		<styleUrl>#__managed_style_39C322789E3F80F05E3C</styleUrl>
		<Point>
			<coordinates>-90.5071620548409,19.83004131098548,5.880839880502478</coordinates>
		</Point>
	</Placemark>
	<Placemark id="0E59C88B493E5FCC383C">
		<name>SECCION 565</name>
		<LookAt>
			<longitude>-90.48863140518635</longitude>
			<latitude>19.80936644185907</latitude>
			<altitude>29.50229697485949</altitude>
			<heading>0</heading>
			<tilt>0</tilt>
			<gx:fovy>30.00000261543478</gx:fovy>
			<range>8865.158815701725</range>
			<altitudeMode>absolute</altitudeMode>
		</LookAt>
		<styleUrl>#__managed_style_068B6A29253F80F05E3F</styleUrl>
		<Polygon>
			<outerBoundaryIs>
				<LinearRing>
					<coordinates>
						-90.50031790263631,19.81681693547555,0 -90.5038449628214,19.81600613693836,0 -90.50389716590931,19.81625246213799,0 -90.50401617845236,19.81630298612118,0 -90.50609043220338,19.81582254196418,0 -90.50574184017837,19.81446492153796,0 -90.50658274821731,19.81421816293084,0 -90.50150467178307,19.79296711709954,0 -90.49974764179237,19.79264481731174,0 -90.49908025247412,19.79255584926066,0 -90.49781654478643,19.79256794404298,0 -90.49137324642157,19.79405731573902,0 -90.49084510294314,19.79422828885669,0 -90.4903771791042,19.7944429507213,0 -90.48991383340264,19.79477386546249,0 -90.48938759018071,19.79527419667532,0 -90.48907426626992,19.7956960123443,0 -90.48804677390685,19.79802500582018,0 -90.48767599463908,19.79881023396962,0 -90.48905312793292,19.80050969470951,0 -90.48930354826767,19.80124416022577,0 -90.48943456512166,19.80148587912259,0 -90.48966493178084,19.80171713822789,0 -90.48964440299925,19.80191394340421,0 -90.48962513229689,19.80200473938402,0 -90.48963864040101,19.80237696262256,0 -90.49098991801344,19.80793017220453,0 -90.49107469264364,19.80808286983613,0 -90.49229564266739,19.8094033120267,0 -90.49250703580766,19.80989550500967,0 -90.49320302706806,19.80974595640288,0 -90.49223464643896,19.80590017281482,0 -90.49419005787904,19.80547726456607,0 -90.49463491303986,19.80540971678879,0 -90.49498975784846,19.80677143143734,0 -90.49767084873722,19.80669051647352,0 -90.50031790263631,19.81681693547555,0 
					</coordinates>
				</LinearRing>
			</outerBoundaryIs>
		</Polygon>
	</Placemark>
	<Placemark id="040649336D3E5FDBD25F">
		<name>SECCION 566</name>
		<LookAt>
			<longitude>-90.48768729708476</longitude>
			<latitude>19.79935881241486</latitude>
			<altitude>9.389152667170723</altitude>
			<heading>0</heading>
			<tilt>0</tilt>
			<gx:fovy>30.00000261543478</gx:fovy>
			<range>281.5962434215181</range>
			<altitudeMode>absolute</altitudeMode>
		</LookAt>
		<styleUrl>#__managed_style_05EC9C97A33F80F05E3E</styleUrl>
		<Polygon>
			<outerBoundaryIs>
				<LinearRing>
					<coordinates>
						-90.48767583434253,19.79880988168926,0 -90.48739981470665,19.79933791445844,0 -90.48634870605518,19.80065761181913,0 -90.48508947147317,19.80092369534884,0 -90.48526619068487,19.80390621665938,0 -90.48516062871698,19.80516098101714,0 -90.48526427444921,19.80581454695714,0 -90.48758648351318,19.8152811085502,0 -90.490627736745,19.81574612479541,0 -90.49245250746942,19.81663229237563,0 -90.49340762171289,19.81530506913501,0 -90.49359179499523,19.81493889549584,0 -90.49366491708987,19.81462889532308,0 -90.49356637454622,19.81436599619747,0 -90.49354236813475,19.81398387559017,0 -90.49358355299486,19.81376709603798,0 -90.49363605769115,19.81359498344043,0 -90.4937112711313,19.8134996679649,0 -90.49364295455331,19.8133949265693,0 -90.49345468411425,19.81323686144502,0 -90.49250690933077,19.80989553041067,0 -90.49229547785801,19.80940346270523,0 -90.49107487737638,19.80808321128803,0 -90.49098996919129,19.80793018898369,0 -90.48963860483423,19.80237700209765,0 -90.48962501800261,19.80200645116299,0 -90.48964370400431,19.80191556973449,0 -90.4896651009249,19.80171656727572,0 -90.48943481902741,19.80148673325007,0 -90.4893035449078,19.801244618564,0 -90.48905262518333,19.80050964920113,0 -90.48767583434253,19.79880988168926,0 
					</coordinates>
				</LinearRing>
			</outerBoundaryIs>
		</Polygon>
	</Placemark>
	<Placemark id="0B659739643E5FE29EE4">
		<name>SECCION 564, FRACC. SIGLO XXI</name>
		<LookAt>
			<longitude>-90.50461284569917</longitude>
			<latitude>19.83319201817939</latitude>
			<altitude>6.860294344842497</altitude>
			<heading>0</heading>
			<tilt>0</tilt>
			<gx:fovy>30.00000261543478</gx:fovy>
			<range>213.9756204669902</range>
			<altitudeMode>absolute</altitudeMode>
		</LookAt>
		<styleUrl>#__managed_style_12C209ADFB3F80F05E48</styleUrl>
		<Polygon>
			<outerBoundaryIs>
				<LinearRing>
					<coordinates>
						-90.50539052359278,19.83298606495762,0 -90.50598422770504,19.83382781817999,0 -90.50684943279678,19.83332490408161,0 -90.50316972169399,19.82783300741292,0 -90.49767122259023,19.8066967027267,0 -90.4949896733438,19.80677123470646,0 -90.49463436363723,19.80541026983125,0 -90.49419112915922,19.80547703194209,0 -90.49223512754214,19.80590021334631,0 -90.49320274383358,19.80974621343739,0 -90.49250747808485,19.8098953460844,0 -90.49345463078694,19.81323607207002,0 -90.49364296198928,19.8133950648589,0 -90.49371121760187,19.81349993711974,0 -90.49363654964499,19.81359489212761,0 -90.49358386736175,19.81376645222211,0 -90.49354259968783,19.81398223405637,0 -90.49356627897686,19.81436575826794,0 -90.49366488500044,19.81462904113577,0 -90.49359200134143,19.81493875918657,0 -90.49340985413127,19.81530171767414,0 -90.49245273692968,19.81663229940749,0 -90.49385399940203,19.81731059456282,0 -90.50238735804295,19.82995612527841,0 -90.50169911150269,19.83318062684961,0 -90.50367203191915,19.83467955301915,0 -90.50534613204287,19.8337174984857,0 -90.5050139174644,19.83321389332027,0 -90.50539052359278,19.83298606495762,0 
					</coordinates>
				</LinearRing>
			</outerBoundaryIs>
		</Polygon>
	</Placemark>
	<Placemark id="019D04772F3E5FE36E70">
		<name>SECCION 565, FRACC. SIGLO XXI</name>
		<LookAt>
			<longitude>-90.49332671917234</longitude>
			<latitude>19.80483912275482</latitude>
			<altitude>13.3032894396403</altitude>
			<heading>0</heading>
			<tilt>0</tilt>
			<gx:fovy>30.00000261543478</gx:fovy>
			<range>4621.610345605295</range>
			<altitudeMode>absolute</altitudeMode>
		</LookAt>
		<styleUrl>#__managed_style_39C322789E3F80F05E3C</styleUrl>
		<Point>
			<coordinates>-90.49400072543862,19.80274931921945,11.63394319405547</coordinates>
		</Point>
	</Placemark>
	<Placemark id="0167277A0A3E5FE3D011">
		<name>SECCION 564</name>
		<LookAt>
			<longitude>-90.4949532306985</longitude>
			<latitude>19.81486763058798</latitude>
			<altitude>11.64802415294054</altitude>
			<heading>0</heading>
			<tilt>0</tilt>
			<gx:fovy>30.00000261543478</gx:fovy>
			<range>3952.018029458122</range>
			<altitudeMode>absolute</altitudeMode>
		</LookAt>
		<styleUrl>#__managed_style_39C322789E3F80F05E3C</styleUrl>
		<Point>
			<coordinates>-90.49655038757572,19.81391925990944,12.75300168812498</coordinates>
		</Point>
	</Placemark>
	<Placemark id="0217C273A43E5FEE8666">
		<name>SECCION 566,  FRACC. SIGLO XXI</name>
		<LookAt>
			<longitude>-90.48744040951757</longitude>
			<latitude>19.8134798935444</latitude>
			<altitude>30.9151396849449</altitude>
			<heading>0</heading>
			<tilt>0</tilt>
			<gx:fovy>30.00000261543478</gx:fovy>
			<range>12452.42150757462</range>
			<altitudeMode>absolute</altitudeMode>
		</LookAt>
		<styleUrl>#__managed_style_39C322789E3F80F05E3C</styleUrl>
		<Point>
			<coordinates>-90.48909124478172,19.80792733272737,27.5816920112003</coordinates>
		</Point>
	</Placemark>
	<Placemark id="072165DE8C3E5FF5010F">
		<name>SECCION 564, FRACC. SIGLO XXI</name>
		<LookAt>
			<longitude>-90.49714727133478</longitude>
			<latitude>19.8140556351942</latitude>
			<altitude>14.00589780090258</altitude>
			<heading>0</heading>
			<tilt>0</tilt>
			<gx:fovy>30.00000261543478</gx:fovy>
			<range>2561.394331090269</range>
			<altitudeMode>absolute</altitudeMode>
		</LookAt>
		<styleUrl>#__managed_style_39C322789E3F80F05E3C</styleUrl>
		<Point>
			<coordinates>-90.49598308357777,19.81199160815247,10.29548296129841</coordinates>
		</Point>
	</Placemark>
</Document>
</kml>
