{"type":"FeatureCollection","name":"MAPA D3","features":[{"type":"Feature","properties":{"sectionId":"39","kind":"boundary-line","index":0},"geometry":{"type":"LineString","coordinates":[[-90.49720283108809,19.84642630653887],[-90.49673015449092,19.84643088979909],[-90.494167081517,19.84789069434585],[-90.49383911210928,19.84812385891824],[-90.49371654641497,19.84828629362267],[-90.49357708282147,19.84848763837447],[-90.4934490837452,19.84904211650396],[-90.49333131345556,19.84924483030435],[-90.49315038167403,19.84940567502918],[-90.49244567186072,19.8498214242871],[-90.49172444109735,19.84860320406383],[-90.49094427042219,19.84803514689986],[-90.49112460602504,19.84716090249624],[-90.49111374503752,19.84703451778637],[-90.49106112034791,19.84696489733449],[-90.49096195247617,19.84689607471439],[-90.49081970034705,19.84678205837502],[-90.49122513293344,19.84632546042209],[-90.48969487737608,19.84515192978584],[-90.48976066080596,19.84505628736006],[-90.49088314430408,19.84394368902431],[-90.490220030039,19.84332563174185],[-90.49238042516623,19.84113915100413],[-90.49260044238548,19.84129385472458],[-90.49263036184587,19.84126574293745],[-90.49305902693158,19.84145535330213],[-90.49316279501868,19.8412082071842],[-90.49333144464296,19.84134240836945],[-90.49342789826495,19.84126642419553],[-90.49373494099773,19.84147763047865],[-90.4941893502545,19.84094087532364],[-90.4949026400292,19.84140763398112],[-90.49422498450399,19.84234280052937],[-90.49382381206867,19.84276147341057],[-90.49587350422783,19.84412153679341],[-90.49482246062098,19.8455876617885],[-90.49503679166176,19.84576646819683],[-90.49524277561054,19.84586042335833],[-90.49550254696706,19.8460473461785],[-90.4956712354352,19.84618277481954],[-90.49573752379095,19.84620288438569],[-90.4957912894052,19.84621084964987],[-90.49583931241,19.84620407304357],[-90.4959156997824,19.84617430873634],[-90.49622710197126,19.84602072077214],[-90.49644873850478,19.84594108763595],[-90.49660555925227,19.84591113903524],[-90.49680806634923,19.84589786512681],[-90.49700456800025,19.84591744073896],[-90.49711600586332,19.84594178484578],[-90.49721602836935,19.84600399154649],[-90.49721420251468,19.84637641198029]]}},{"type":"Feature","properties":{"sectionId":"39","kind":"boundary-line","index":1},"geometry":{"type":"LineString","coordinates":[[-90.49721448187522,19.84637591368146],[-90.49720302520491,19.84642593699892]]}},{"type":"Feature","properties":{"sectionId":"39","kind":"label","name":"Secci\u00f3n 39"},"geometry":{"type":"Point","coordinates":[-90.49330741636653,19.84641940760765]}},{"type":"Feature","properties":{"sectionId":"40","kind":"boundary","index":0},"geometry":{"type":"Polygon","coordinates":[[[-90.4985116508197,19.84644683865437],[-90.4988146644446,19.84758867388046],[-90.49797489568655,19.84778443977689],[-90.49791776209081,19.84818691749716],[-90.49836679194628,19.84819200005062],[-90.49955258757781,19.84786707498361],[-90.50067470447908,19.84748764450966],[-90.50092664074985,19.84735629636994],[-90.50167473940641,19.84711228075552],[-90.50085326474857,19.84592379923348],[-90.50123955494682,19.84575725425626],[-90.50156776759798,19.84568541769894],[-90.50209347205768,19.84552748303536],[-90.50269911032375,19.84537646163445],[-90.50401468571023,19.84502337884545],[-90.5038686395352,19.84370157949979],[-90.50370460131762,19.84367990722448],[-90.50358008548007,19.84367118139167],[-90.5033943147239,19.84367688529924],[-90.50307707677996,19.84377984501303],[-90.50200995656694,19.84423558760705],[-90.4989515932038,19.84623756604816],[-90.49873193200631,19.84633835785283],[-90.4985116508197,19.84644683865437]]]}},{"type":"Feature","properties":{"sectionId":"40","kind":"label","name":"Secci\u00f3n 40"},"geometry":{"type":"Point","coordinates":[-90.50008140173873,19.84654829271747]}},{"type":"Feature","properties":{"sectionId":"41","kind":"boundary","index":0},"geometry":{"type":"Polygon","coordinates":[[[-90.50257681601722,19.8468742745685],[-90.50421556086458,19.84637873931606],[-90.50589430112956,19.84556776080099],[-90.50630131441864,19.84620958707283],[-90.50709414121583,19.84559911594022],[-90.50659128932482,19.84520795679376],[-90.50646745617055,19.84509307279673],[-90.50625107857144,19.84496688076062],[-90.50607969563244,19.84486578955478],[-90.50595466813138,19.84476911627277],[-90.50570195568429,19.84451270414941],[-90.50558835239696,19.84433770283751],[-90.50386892396033,19.84370208483126],[-90.50401369605356,19.84502456119353],[-90.5020888144536,19.84552832484417],[-90.50156000614912,19.84568640264352],[-90.50123767145438,19.84575733164474],[-90.50085276860557,19.84592289432885],[-90.50167061073529,19.84710683473587],[-90.50257681601722,19.8468742745685]]]}},{"type":"Feature","properties":{"sectionId":"41","kind":"label","name":"Secci\u00f3n 41"},"geometry":{"type":"Point","coordinates":[-90.50437381253053,19.84563151780547]}},{"type":"Feature","properties":{"sectionId":"42","kind":"boundary","index":0},"geometry":{"type":"Polygon","coordinates":[[[-90.50912043078638,19.84226442253629],[-90.50691058026979,19.84211091806808],[-90.50604295968117,19.84203365427358],[-90.50581072734364,19.84205624901895],[-90.50531796793571,19.8421646633661],[-90.50494845631682,19.84228249014827],[-90.50471077265576,19.84238024392463],[-90.50263044686062,19.84379093784301],[-90.50242234190556,19.84386682552534],[-90.50242865378596,19.8438975784792],[-90.50242007818727,19.84392694056787],[-90.5024058851215,19.84395765254207],[-90.50234200705391,19.84399627742973],[-90.50240633442867,19.84406628773552],[-90.50308371208902,19.84377843968153],[-90.50339469371522,19.84367638077708],[-90.50358174809719,19.84367145628256],[-90.50370532018142,19.84368012085026],[-90.50386872972116,19.84370234809428],[-90.50558749131748,19.84433727811725],[-90.5064508630714,19.84439680596365],[-90.50748867305379,19.84470644717239],[-90.50859512476126,19.84477912988672],[-90.50878902227265,19.84477688685131],[-90.50911204182405,19.8448313260679],[-90.50968705560685,19.84493757430486],[-90.50980639377151,19.84409881805134],[-90.51181646700378,19.84442016606437],[-90.51216356228038,19.84307108455732],[-90.511720077219,19.84248209717136],[-90.50912043078638,19.84226442253629]]]}},{"type":"Feature","properties":{"sectionId":"42","kind":"label","name":"Secci\u00f3n 42"},"geometry":{"type":"Point","coordinates":[-90.50864112415975,19.84316638256638]}},{"type":"Feature","properties":{"sectionId":"43","kind":"boundary","index":0},"geometry":{"type":"Polygon","coordinates":[[[-90.50559077600217,19.84433644578056],[-90.50570299356004,19.84451509409036],[-90.50595346609883,19.84476947208029],[-90.50646801213028,19.84509450622912],[-90.50709593090744,19.84559893896962],[-90.5082137205986,19.84708354132515],[-90.5082506162639,19.84715494616236],[-90.50901366092654,19.84734319848566],[-90.51092984007718,19.84761009872224],[-90.51135284209262,19.84630915797362],[-90.51159321608996,19.84533304826933],[-90.51181687638312,19.84441970842068],[-90.50980655528119,19.8440990240768],[-90.5096871645469,19.84493783501392],[-90.5090978922101,19.844829061152],[-90.50879421074691,19.84477654016081],[-90.50859822549346,19.8447794677077],[-90.50749295849151,19.84470610041564],[-90.50644884608943,19.84439701155869],[-90.50559077600217,19.84433644578056]]]}},{"type":"Feature","properties":{"sectionId":"43","kind":"label","name":"Secci\u00f3n 43"},"geometry":{"type":"Point","coordinates":[-90.51013583033671,19.84571622210539]}},{"type":"Feature","properties":{"sectionId":"44","kind":"boundary","index":0},"geometry":{"type":"Polygon","coordinates":[[[-90.51172007170943,19.84248194345408],[-90.51216387425904,19.84307221408545],[-90.51181748092428,19.84442102455826],[-90.5113627708233,19.84626175985074],[-90.51093011731025,19.84760919075251],[-90.51310291526332,19.84790038382176],[-90.51358087485764,19.84563945736924],[-90.51446746287208,19.84578157906422],[-90.51451666854909,19.84553398546633],[-90.51392690270022,19.84501859629687],[-90.51410059532712,19.84474775732891],[-90.51443931443819,19.84414696518112],[-90.51411675485868,19.84377277253768],[-90.51393180586595,19.84360682242887],[-90.5137166806399,19.84346030935499],[-90.51365831557847,19.84342986768784],[-90.51289979989767,19.84255655490744],[-90.51172007170943,19.84248194345408]]]}},{"type":"Feature","properties":{"sectionId":"44","kind":"label","name":"Secci\u00f3n 44"},"geometry":{"type":"Point","coordinates":[-90.51337429288978,19.84446611450924]}},{"type":"Feature","properties":{"sectionId":"45","kind":"boundary","index":0},"geometry":{"type":"Polygon","coordinates":[[[-90.51310246963742,19.84789970929466],[-90.51559173097469,19.84818425271509],[-90.51687089346024,19.8483974071913],[-90.51489131666419,19.84264828319506],[-90.5129000554527,19.842556595314],[-90.51365804392344,19.84342897570335],[-90.51371641682317,19.84346010772092],[-90.51393114470744,19.84360630570211],[-90.51397163737316,19.84364272981847],[-90.51411568277142,19.8437715767129],[-90.51424196115704,19.84391841830885],[-90.51443926426845,19.84414689148218],[-90.51412286007734,19.84470966886281],[-90.51392690512448,19.84501833231229],[-90.51451612883065,19.84553330840169],[-90.51446585822754,19.8457834209643],[-90.51358084524229,19.8456398062586],[-90.51310246963742,19.84789970929466]]]}},{"type":"Feature","properties":{"sectionId":"45","kind":"label","name":"Secci\u00f3n 45"},"geometry":{"type":"Point","coordinates":[-90.5149151256565,19.84617392897552]}},{"type":"Feature","properties":{"sectionId":"60","kind":"boundary","index":0},"geometry":{"type":"Polygon","coordinates":[[[-90.51488989168485,19.84264850939593],[-90.51412269145916,19.84019435409965],[-90.5130283271785,19.84045747210871],[-90.51279037581946,19.84046179578181],[-90.51225720689979,19.84043372806764],[-90.51205926453935,19.84012606001976],[-90.51135659333185,19.84011782677526],[-90.511121215158,19.83999618741527],[-90.5109471034933,19.83992116724424],[-90.51073634408965,19.83984511034103],[-90.5103920430976,19.83980133525877],[-90.5100842302343,19.83981123111389],[-90.50975950313726,19.8398254289839],[-90.50957211497418,19.83980819443175],[-90.50910945272213,19.83952968094566],[-90.50891767367612,19.83935790220707],[-90.50859966549457,19.83968832297004],[-90.5084798340275,19.83982664378231],[-90.50821916255018,19.84219193610389],[-90.51173546242973,19.8424843504517],[-90.51488989168485,19.84264850939593]]]}},{"type":"Feature","properties":{"sectionId":"60","kind":"label","name":"Secci\u00f3n 60"},"geometry":{"type":"Point","coordinates":[-90.5119123247171,19.84128281660826]}},{"type":"Feature","properties":{"sectionId":"61","kind":"boundary","index":0},"geometry":{"type":"Polygon","coordinates":[[[-90.50681505209891,19.84014189513081],[-90.5065799610538,19.8400293247029],[-90.5061432739175,19.83977621901163],[-90.50579488968039,19.84044014288981],[-90.50572275006016,19.84047763532181],[-90.50565520196226,19.84050701207238],[-90.50555749441284,19.84052768953909],[-90.5054506695933,19.84053326622511],[-90.50483691911471,19.84018192826887],[-90.50456696546298,19.840780757836],[-90.50472078137561,19.84101264079818],[-90.50427287504037,19.84105602678846],[-90.50370812283664,19.84124870567192],[-90.50363031860167,19.84130143796985],[-90.50268490108309,19.8414233864469],[-90.50266958437074,19.8419015075165],[-90.50267970820961,19.84198021368375],[-90.50292404292568,19.84228083454148],[-90.50356920861626,19.84315049822736],[-90.50472028696277,19.84237991199327],[-90.50495828955778,19.84227826996806],[-90.50531833267685,19.84216358697696],[-90.5058088771796,19.84205550523229],[-90.50604052337555,19.84203343108993],[-90.50700825141575,19.84211956124247],[-90.50735776898398,19.84039039192178],[-90.50681505209891,19.84014189513081]]]}},{"type":"Feature","properties":{"sectionId":"61","kind":"label","name":"Secci\u00f3n 61"},"geometry":{"type":"Point","coordinates":[-90.50595402130321,19.84103461121058]}},{"type":"Feature","properties":{"sectionId":"62","kind":"boundary","index":0},"geometry":{"type":"Polygon","coordinates":[[[-90.50263296322788,19.84379029651756],[-90.503570697901,19.84315202267735],[-90.50291384822098,19.84226954051784],[-90.50268020662128,19.84198128593505],[-90.50266959994379,19.84189544864689],[-90.5026898471564,19.84143094843441],[-90.50281420984312,19.84047203452368],[-90.50160931610179,19.83942088620435],[-90.5013219609627,19.83930731308289],[-90.50109322958048,19.83969861422143],[-90.5000219711979,19.83917464765404],[-90.49994105528447,19.83917140433124],[-90.49970866022974,19.83919976986482],[-90.49951624736529,19.8392125397021],[-90.49932865864649,19.8392251451586],[-90.49920150364916,19.83923283058969],[-90.49912853052703,19.8392426871438],[-90.49905037654611,19.83927029941512],[-90.49889383403828,19.83937299425378],[-90.49972715237284,19.83975088266491],[-90.49942434334008,19.84006227918468],[-90.49962441819598,19.84018192519834],[-90.49868421412876,19.84156540600073],[-90.49862408892093,19.84162159045691],[-90.49855197165358,19.8416601626852],[-90.49897586487107,19.84172466253592],[-90.49920621513772,19.84177145726435],[-90.49932328515555,19.84179777229986],[-90.49950275139773,19.84178224956288],[-90.49971335956819,19.84188276624301],[-90.50078331755876,19.84267473868662],[-90.49964115610302,19.8443615598008],[-90.50010654127128,19.84548105680482],[-90.50200841889325,19.84423664320864],[-90.50240620804115,19.8440672692372],[-90.50234262696375,19.84399617791826],[-90.50240633900096,19.84395675313151],[-90.5024206569087,19.84392523225608],[-90.50242848231294,19.84389843794988],[-90.50242307357668,19.84386742342089],[-90.50263296322788,19.84379029651756]]]}},{"type":"Feature","properties":{"sectionId":"62","kind":"label","name":"Secci\u00f3n 62"},"geometry":{"type":"Point","coordinates":[-90.50107028736792,19.84130056743441]}},{"type":"Feature","properties":{"sectionId":"63","kind":"boundary","index":0},"geometry":{"type":"Polygon","coordinates":[[[-90.49720300681618,19.84642687679337],[-90.49818969398201,19.84648352848973],[-90.49851124339932,19.84644619302734],[-90.4987212000815,19.84634343980386],[-90.49894962272477,19.84623858446271],[-90.5001064041557,19.84548251688391],[-90.49964321889969,19.84435591231725],[-90.50078295503191,19.84267559936922],[-90.49972016578486,19.84188953267221],[-90.49950579224304,19.8417811918659],[-90.4993231888924,19.84179714685682],[-90.49895087529788,19.84172016026313],[-90.49855393673677,19.84166037396645],[-90.49811176357963,19.84235027166051],[-90.49773750989553,19.84278328827978],[-90.49764483171774,19.84323671056473],[-90.49744237146294,19.84330730264493],[-90.49734619244835,19.84339030964541],[-90.49683223267984,19.84245312850223],[-90.4958730054434,19.84412005941492],[-90.49482259996161,19.84558726225343],[-90.49503427336643,19.84576528601275],[-90.49523876802581,19.84585820064853],[-90.49549669592452,19.84604243264598],[-90.49567103217979,19.84618257841542],[-90.49573759711961,19.84620284557602],[-90.49579122947019,19.84621075556849],[-90.49583836050294,19.84620427122253],[-90.49591682649995,19.84617440972269],[-90.49622702853047,19.84602076426255],[-90.4964499628979,19.84594078960719],[-90.49660257647054,19.84591151515972],[-90.49680998048929,19.84589756585155],[-90.49700538762954,19.84591745239326],[-90.49711616505493,19.84594172269529],[-90.49721532301082,19.84600364767986],[-90.49721453038896,19.8463734926627],[-90.49720300681618,19.84642687679337]]]}},{"type":"Feature","properties":{"sectionId":"63","kind":"label","name":"Secci\u00f3n 63"},"geometry":{"type":"Point","coordinates":[-90.49814780153248,19.84468254979937]}},{"type":"Feature","properties":{"sectionId":"64","kind":"boundary","index":0},"geometry":{"type":"Polygon","coordinates":[[[-90.49574877987605,19.84223973283801],[-90.4963917931245,19.84164575503895],[-90.49636893594183,19.8415130617593],[-90.49570966322297,19.84118688463338],[-90.49625420106089,19.83996777990139],[-90.49627546048424,19.83981104778386],[-90.49620069956961,19.8395867934688],[-90.49672407727542,19.83940362002123],[-90.4964955159686,19.83879181150897],[-90.49624347504015,19.83819636166384],[-90.49611786511298,19.83806060310577],[-90.49583145585687,19.83789361915598],[-90.49594135398682,19.83756921894962],[-90.49594789403665,19.83732178339299],[-90.49589586111641,19.83706246080791],[-90.49583049232027,19.83689743078927],[-90.495705634512,19.83674354425935],[-90.49552463421477,19.83656168077104],[-90.49538743717,19.83650929276557],[-90.4952967235627,19.83665549986517],[-90.4950974759942,19.83701416481427],[-90.49489853836316,19.8373414007178],[-90.49451690284722,19.83777106458724],[-90.49420064418105,19.83807922964549],[-90.49386554575469,19.83773584169814],[-90.4932307646729,19.83838390837583],[-90.49285083082457,19.8380881515482],[-90.49176237381694,19.83927841268203],[-90.49132172270937,19.83981058784828],[-90.49316292066727,19.84120847305001],[-90.49333172302073,19.84134231450737],[-90.49342749520349,19.84126719396127],[-90.49373531709169,19.84147817132883],[-90.49418879202547,19.84094102542648],[-90.49490522213242,19.84140989351811],[-90.49475158741905,19.84161531005257],[-90.49574877987605,19.84223973283801]]]}},{"type":"Feature","properties":{"sectionId":"64","kind":"label","name":"Secci\u00f3n 64"},"geometry":{"type":"Point","coordinates":[-90.49427535681171,19.83938564967091]}},{"type":"Feature","properties":{"sectionId":"65","kind":"boundary","index":0},"geometry":{"type":"Polygon","coordinates":[[[-90.49475149740465,19.84161528701834],[-90.49422848590504,19.84233812584476],[-90.49382394490648,19.84276145165492],[-90.49587265098499,19.84412168653649],[-90.49683041809482,19.84245475799725],[-90.4973455297367,19.84338988265918],[-90.49744092053618,19.84330753478527],[-90.49764469218302,19.84323683340681],[-90.49773770335106,19.84278313418313],[-90.49810929108595,19.84235348253727],[-90.49855222825708,19.84166127134332],[-90.49862288905662,19.84162218987374],[-90.4986832608919,19.84156668636411],[-90.49962394892763,19.8401840514489],[-90.4994245204016,19.84006267974788],[-90.49972800456644,19.83975060428832],[-90.4988924426783,19.8393720553648],[-90.49905158522431,19.83927079749323],[-90.49912910267633,19.83924166184456],[-90.49919705507872,19.83923295253902],[-90.49970734692997,19.83919997672929],[-90.49993756214326,19.83917188619401],[-90.50002129709627,19.83917450904204],[-90.49919016893367,19.83839488025751],[-90.49810487852166,19.83715478562273],[-90.49777694444627,19.83687954498789],[-90.49772314819654,19.83696329212858],[-90.49769647944402,19.83715574750034],[-90.4977132081971,19.83749092665599],[-90.49771357463794,19.83764602540111],[-90.4974183544522,19.83882122135331],[-90.49730024867642,19.8394684834278],[-90.49711160011161,19.83993301201932],[-90.4967790022551,19.84062258869552],[-90.49658367387029,19.84053720893899],[-90.4967477138386,19.84012779631773],[-90.49680139569875,19.83993169399286],[-90.49679993948111,19.83973126754788],[-90.496784905367,19.83959753709704],[-90.49676471640375,19.8394685732159],[-90.49672381632567,19.8394034137915],[-90.4962005479401,19.83958780175279],[-90.49627547293713,19.83981104163433],[-90.4962543477874,19.83996768487221],[-90.49570880410818,19.84118783415375],[-90.49636825184693,19.84151386547515],[-90.49639054104462,19.84164945308927],[-90.49574912663722,19.84223885267667],[-90.49475149740465,19.84161528701834]]]}},{"type":"Feature","properties":{"sectionId":"65","kind":"label","name":"Secci\u00f3n 65"},"geometry":{"type":"Point","coordinates":[-90.4980699568604,19.84080764164548]}},{"type":"Feature","properties":{"sectionId":"66","kind":"boundary","index":0},"geometry":{"type":"Polygon","coordinates":[[[-90.50247647556222,19.84017808765095],[-90.50281414419285,19.84047210169944],[-90.50269149105335,19.8414229167645],[-90.5036315937875,19.84130104820472],[-90.5037119623646,19.84124745085505],[-90.50427568088358,19.84105586088818],[-90.50472123018616,19.84101273530276],[-90.50456699179325,19.84078108037038],[-90.50483660211177,19.84018433829461],[-90.50545023022669,19.84053352103847],[-90.50556013337524,19.84052773024214],[-90.50565646381682,19.84050647587704],[-90.5057253319875,19.84047669719176],[-90.50579594641395,19.84043966758666],[-90.50614685197822,19.83977898329205],[-90.50658659791804,19.84003450461294],[-90.50735515681708,19.84038879768497],[-90.50773783308172,19.83865372196478],[-90.50783515331548,19.83843013455733],[-90.50605029137623,19.83739048608731],[-90.5052074401362,19.83685172922072],[-90.5051659886703,19.83671371308769],[-90.50438203919215,19.83626468308078],[-90.50247647556222,19.84017808765095]]]}},{"type":"Feature","properties":{"sectionId":"66","kind":"label","name":"Secci\u00f3n 66"},"geometry":{"type":"Point","coordinates":[-90.50518351827888,19.83892385509343]}},{"type":"Feature","properties":{"sectionId":"67","kind":"boundary","index":0},"geometry":{"type":"Polygon","coordinates":[[[-90.5070118907717,19.84211973404449],[-90.50821898999384,19.84219682889746],[-90.50848023369429,19.83982518241456],[-90.50891266727587,19.83935960479172],[-90.50910677153898,19.83952846793309],[-90.50957186296161,19.83980851756589],[-90.50975610076489,19.83982593363696],[-90.51038469275318,19.83980140160281],[-90.51073476987385,19.8398447820992],[-90.51094903315375,19.83992212478481],[-90.51111707346863,19.83999455444708],[-90.51135794270249,19.84011882590188],[-90.51206096339331,19.84012500035713],[-90.51225601262857,19.84043371390897],[-90.5127832018868,19.84046140433622],[-90.51302644334402,19.84045829576177],[-90.51357333528985,19.84032744164081],[-90.51320063917302,19.83917718578605],[-90.51311402904827,19.83915863670647],[-90.51287584284091,19.83888812823934],[-90.51251394415927,19.83794151876996],[-90.51216257414902,19.83807744893365],[-90.51183364990706,19.83831714017187],[-90.51194293427665,19.83847558804544],[-90.51202609980662,19.83857103641674],[-90.51149898117697,19.83876640923525],[-90.51084088579346,19.83820073257386],[-90.51051385014186,19.83860617824983],[-90.50876757650411,19.83737551327831],[-90.50783533221662,19.83843224842508],[-90.50773913949173,19.83865339564985],[-90.50735679004949,19.84038534845018],[-90.5070118907717,19.84211973404449]]]}},{"type":"Feature","properties":{"sectionId":"67","kind":"label","name":"Secci\u00f3n 67"},"geometry":{"type":"Point","coordinates":[-90.51049369363214,19.83894503003826]}},{"type":"Feature","properties":{"sectionId":"79","kind":"boundary","index":0},"geometry":{"type":"Polygon","coordinates":[[[-90.513573905027,19.84032400011282],[-90.51412451298319,19.8401941974942],[-90.51251090374669,19.83505460572573],[-90.511542261215,19.83217624856024],[-90.5104115337749,19.82869660489333],[-90.50940891368516,19.82469443266391],[-90.50815153502182,19.81967957064046],[-90.50694848951734,19.81478700162816],[-90.50149459497024,19.79305348172048],[-90.49977610067704,19.79275102103434],[-90.49913139489738,19.7926446587589],[-90.49874960964115,19.79261855471427],[-90.49828559341323,19.79260587309977],[-90.49799529852682,19.79261998169722],[-90.49755907236867,19.79265975600217],[-90.49703903487632,19.79274484695685],[-90.49594511017177,19.79295252670628],[-90.49358895852534,19.79351994024534],[-90.49184192682468,19.79393728489873],[-90.49048023066487,19.79440597201333],[-90.49019760697358,19.79456289205979],[-90.48978338045143,19.79489843112657],[-90.48943821867182,19.79523243045712],[-90.48897983564277,19.79591094664675],[-90.48839906049787,19.79727910365694],[-90.48742532949598,19.79934192611796],[-90.48651538271093,19.80048783906046],[-90.48507862832487,19.80090604835067],[-90.48531099500363,19.80386115158005],[-90.4852388327165,19.80517963502729],[-90.48531125543845,19.80579147939773],[-90.48758359926855,19.81519174077826],[-90.49061631120614,19.81577326299514],[-90.49387054794451,19.81737892790961],[-90.50238096463012,19.82998599975109],[-90.5016932738603,19.83315386386803],[-90.5010721595031,19.83457354053811],[-90.50438663214746,19.83626353710562],[-90.50516507687618,19.83671497579196],[-90.50520931559201,19.8368523185262],[-90.506074580659,19.83740774442362],[-90.50783518843525,19.83843198038899],[-90.50876528358027,19.83737784080934],[-90.5105156962973,19.83860646665635],[-90.51083900370035,19.83820286448538],[-90.51149836579124,19.83876662140387],[-90.51202675519322,19.83857088000081],[-90.51193497608111,19.83846479042773],[-90.5118338794793,19.83831846316989],[-90.5121653573392,19.83807619124318],[-90.51251449237591,19.8379420291359],[-90.51287554808529,19.83888495890197],[-90.51311085524937,19.83915604791558],[-90.51320362761487,19.83918033508867],[-90.513573905027,19.84032400011282]]]}},{"type":"Feature","properties":{"sectionId":"79","kind":"label","name":"Secci\u00f3n 79"},"geometry":{"type":"Point","coordinates":[-90.49967411251006,19.81122160613478]}},{"type":"Feature","properties":{"sectionId":"80","kind":"boundary","index":0},"geometry":{"type":"Polygon","coordinates":[[[-90.50346473945575,19.83812733980649],[-90.50232551681745,19.83740717674563],[-90.5020413696349,19.83791294568933],[-90.50081349974256,19.8373325565924],[-90.50052874465275,19.83697255869624],[-90.4993336745683,19.83780454221162],[-90.50009147891247,19.83861071535297],[-90.500318534853,19.83871163006305],[-90.5000704958679,19.83919783391767],[-90.50109199289128,19.83970008698507],[-90.50132351678717,19.83930727229327],[-90.50160879176397,19.83941955979592],[-90.50247644764391,19.84017668748964],[-90.50346473945575,19.83812733980649]]]}},{"type":"Feature","properties":{"sectionId":"80","kind":"label","name":"Secci\u00f3n 80"},"geometry":{"type":"Point","coordinates":[-90.5014135460375,19.83825921573748]}},{"type":"Feature","properties":{"sectionId":"82","kind":"boundary","index":0},"geometry":{"type":"Polygon","coordinates":[[[-90.49767267260975,19.82300555965844],[-90.48948273691335,19.82964738995848],[-90.49133863367159,19.83217652925669],[-90.49093797696132,19.83230662503684],[-90.49085313230044,19.83215972335818],[-90.49034198757356,19.83243131970009],[-90.49014819607372,19.83256003200479],[-90.48908237925896,19.8346130961583],[-90.4915757775033,19.83583179481888],[-90.49139627222922,19.83612331603294],[-90.49126652734898,19.83630572377526],[-90.49114170640017,19.83645394360238],[-90.48969190933757,19.83792526223717],[-90.491647054244,19.83941122240808],[-90.49285062007722,19.83808833871763],[-90.49323050683522,19.83838302222209],[-90.49386393357553,19.83773490384112],[-90.49420085195887,19.83807902611596],[-90.49451782365074,19.83776997690611],[-90.49490278769868,19.8373407585035],[-90.49538374255268,19.83651028936609],[-90.49370286563817,19.8359284613472],[-90.4938431154811,19.83504303336419],[-90.49397635648262,19.83476226361285],[-90.49436359560605,19.83410595135966],[-90.4960123259438,19.83162787857875],[-90.4962722731773,19.83133708719984],[-90.49651035581432,19.83117918216027],[-90.49685596096595,19.83114172756661],[-90.49723217826514,19.83121882863806],[-90.49742443171822,19.83132671744028],[-90.49838529602619,19.8330669938935],[-90.49845954278226,19.83278658987013],[-90.50091619942334,19.82784181907107],[-90.49767267260975,19.82300555965844]]]}},{"type":"Feature","properties":{"sectionId":"82","kind":"label","name":"Secci\u00f3n 82"},"geometry":{"type":"Point","coordinates":[-90.4939303519266,19.8313441568184]}},{"type":"Feature","properties":{"sectionId":"83","kind":"boundary","index":0},"geometry":{"type":"Polygon","coordinates":[[[-90.49845883979152,19.83278912472798],[-90.49838514105971,19.83306647321544],[-90.49742392104075,19.83132646250611],[-90.49723201192803,19.83121876088513],[-90.49685935141844,19.83114055657914],[-90.49651274101188,19.8311767912638],[-90.49627130052775,19.83133703139515],[-90.49601098992241,19.83163079688559],[-90.49436497100278,19.83410076644181],[-90.49397778745377,19.83475753335797],[-90.49384096928986,19.83504848718785],[-90.49370383957601,19.83592903995033],[-90.49538371496463,19.83650988854961],[-90.49552424775167,19.8365600660728],[-90.49570164965976,19.83674020394448],[-90.49583117731768,19.83689406042165],[-90.49589716118409,19.8370660129345],[-90.49594761205638,19.83732573492997],[-90.49594100770399,19.83756927188866],[-90.49583156269154,19.83789345652724],[-90.49611726995298,19.83805979020949],[-90.49624414816627,19.83819659574629],[-90.49650494063076,19.83881607431562],[-90.49672375050028,19.83940332159142],[-90.49676461010122,19.83946895419364],[-90.49678476895126,19.83959644025546],[-90.49679998831482,19.83973059032687],[-90.49680119936157,19.83993211096073],[-90.49674786790457,19.84012758354541],[-90.49658387567008,19.84053697963162],[-90.49677892395628,19.84062061994941],[-90.49711154426652,19.83993280420409],[-90.49718702244301,19.83974709149534],[-90.4973011123883,19.83946714570174],[-90.49741770641523,19.83882313588805],[-90.49744634620903,19.83871502102688],[-90.49771321148893,19.83764543066354],[-90.49771324060572,19.83749019644951],[-90.49771142406534,19.83745771546758],[-90.49769655875265,19.83715521874802],[-90.4977229314808,19.83696374460404],[-90.49777671507582,19.83687937571796],[-90.49810540796065,19.83715547140973],[-90.498373550063,19.83746154833106],[-90.499189539435,19.83839464883755],[-90.49976981357639,19.83893636212326],[-90.50001931927889,19.83917419841655],[-90.50007029748053,19.83919746399588],[-90.50031880591139,19.83871135236095],[-90.5000918109254,19.83861090473212],[-90.49933770863429,19.83780305683745],[-90.50052900159831,19.83697290161552],[-90.5008136785807,19.83733279475571],[-90.50204112019763,19.83791046232234],[-90.50232679230494,19.83740917480878],[-90.50346954684704,19.83812978256005],[-90.50437963806746,19.83626205027009],[-90.50107335151421,19.83457150503745],[-90.50169300830433,19.83315637341769],[-90.50237807781636,19.82998096529479],[-90.50092041261307,19.82784070367571],[-90.49845883979152,19.83278912472798]]]}},{"type":"Feature","properties":{"sectionId":"83","kind":"label","name":"Secci\u00f3n 83"},"geometry":{"type":"Point","coordinates":[-90.49860637603247,19.83481180356334]}},{"type":"Feature","properties":{"sectionId":"125","kind":"boundary","index":0},"geometry":{"type":"Polygon","coordinates":[[[-90.50149539539667,19.79304928379914],[-90.5024321759581,19.79322929393871],[-90.50221323229519,19.79254909530974],[-90.50617460123235,19.77947834677568],[-90.50701282362608,19.76990818805592],[-90.50442628104724,19.76978257838857],[-90.50256523850321,19.76989923258931],[-90.50116713700707,19.77047319333483],[-90.50081344725042,19.77078538906429],[-90.50076403172538,19.77102440025442],[-90.49993433547542,19.771150076128],[-90.49973132968732,19.77111537694729],[-90.49947378881676,19.77088211948697],[-90.49833705624182,19.77048424737891],[-90.49736562123339,19.77045598063744],[-90.4962859297741,19.77056223929065],[-90.49413295548575,19.77124490839448],[-90.49429833302037,19.77209884327067],[-90.49391652097623,19.77204049081789],[-90.49182358801063,19.77271059426935],[-90.49158069877916,19.77149545984574],[-90.49036437412889,19.77190473432223],[-90.48945042295195,19.76814116191228],[-90.43400145469028,19.76880128816766],[-90.43445057122226,19.81743676741086],[-90.47713792120173,19.82388253405676],[-90.48948335171336,19.82964318318412],[-90.49766812209722,19.82300709935651],[-90.49447912274253,19.81827989667719],[-90.49386987419025,19.81737878871881],[-90.49061594982619,19.81577270442357],[-90.48758336450152,19.81519146366767],[-90.48531473702894,19.80581858697799],[-90.48523846090917,19.80518028096551],[-90.48531088900843,19.803860991101],[-90.48507863226726,19.8009064966522],[-90.4865152069155,19.80048792807474],[-90.48742545668931,19.79934121076923],[-90.48841598452927,19.7972406758451],[-90.48881925563771,19.79628798564923],[-90.48897297567719,19.7959245900563],[-90.48943668107418,19.79523574158523],[-90.48978069504652,19.79490045269358],[-90.49020066286296,19.79456113929548],[-90.49048110146055,19.79440532799298],[-90.49112838719853,19.79418377708313],[-90.49183352943365,19.79393768732148],[-90.49603172166105,19.79293288868854],[-90.49756245180343,19.79265837893743],[-90.49799960502075,19.79261934156361],[-90.4982840614517,19.79260565773527],[-90.49873401949709,19.79261610644164],[-90.4991362387385,19.79264499244193],[-90.50149539539667,19.79304928379914]]]}},{"type":"Feature","properties":{"sectionId":"125","kind":"label","name":"Secci\u00f3n 125"},"geometry":{"type":"Point","coordinates":[-90.4978884630126,19.77846992140715]}},{"type":"Feature","properties":{"sectionId":"563","kind":"boundary","index":0},"geometry":{"type":"Polygon","coordinates":[[[-90.50658342122982,19.81421802453024],[-90.505741974137,19.81446378252946],[-90.5060905763911,19.81582252470005],[-90.50401653725496,19.81630303783215],[-90.50389724717715,19.81625193142073],[-90.50384514188683,19.8160062021948],[-90.50031773351454,19.81681710714311],[-90.50316932185474,19.82783186216481],[-90.50684951857812,19.83332490621601],[-90.50598402055907,19.83382792100986],[-90.50538998370864,19.83298521639],[-90.50501531190322,19.83321427755689],[-90.50534772430618,19.83371735653892],[-90.5036706212092,19.83467958192687],[-90.50169835709849,19.83318050612061],[-90.5010302019489,19.83461518338677],[-90.50349623216196,19.83574828628511],[-90.5052134093245,19.83672112723151],[-90.50523920987688,19.83685218847402],[-90.50786063491772,19.83843949888548],[-90.50876161714076,19.83737313441615],[-90.51051163582645,19.83861059121257],[-90.51084976425498,19.83820004037814],[-90.51148029683341,19.83876718099772],[-90.51202329238582,19.83857219748314],[-90.51193996169077,19.83848032482712],[-90.51182154724249,19.83831693167732],[-90.51215742979657,19.8380751729871],[-90.5125253686767,19.83792075212771],[-90.51285271980778,19.83885457696804],[-90.51310364927836,19.83915327387905],[-90.5131910761895,19.83918828567143],[-90.51357805625646,19.84030496269786],[-90.51414565408106,19.84015523949088],[-90.50658342122982,19.81421802453024]]]}},{"type":"Feature","properties":{"sectionId":"563","kind":"label","name":"Secci\u00f3n 563"},"geometry":{"type":"Point","coordinates":[-90.5071620548409,19.83004131098548]}},{"type":"Feature","properties":{"sectionId":"564","kind":"boundary","index":0},"geometry":{"type":"Polygon","coordinates":[[[-90.50539052359278,19.83298606495762],[-90.50598422770504,19.83382781817999],[-90.50684943279678,19.83332490408161],[-90.503169721694,19.82783300741292],[-90.49767122259023,19.8066967027267],[-90.4949896733438,19.80677123470646],[-90.49463436363723,19.80541026983125],[-90.49419112915922,19.80547703194209],[-90.49223512754214,19.80590021334631],[-90.49320274383358,19.80974621343739],[-90.49250747808485,19.8098953460844],[-90.49345463078694,19.81323607207002],[-90.49364296198928,19.8133950648589],[-90.49371121760187,19.81349993711974],[-90.49363654964499,19.81359489212761],[-90.49358386736175,19.81376645222211],[-90.49354259968783,19.81398223405637],[-90.49356627897686,19.81436575826794],[-90.49366488500044,19.81462904113577],[-90.49359200134143,19.81493875918657],[-90.49340985413127,19.81530171767414],[-90.49245273692968,19.81663229940749],[-90.49385399940203,19.81731059456282],[-90.50238735804295,19.82995612527841],[-90.50169911150269,19.83318062684961],[-90.50367203191915,19.83467955301915],[-90.50534613204287,19.8337174984857],[-90.5050139174644,19.83321389332027],[-90.50539052359278,19.83298606495762]]]}},{"type":"Feature","properties":{"sectionId":"564","kind":"label","name":"Secci\u00f3n 564"},"geometry":{"type":"Point","coordinates":[-90.49598308357777,19.81199160815247]}},{"type":"Feature","properties":{"sectionId":"565","kind":"boundary","index":0},"geometry":{"type":"Polygon","coordinates":[[[-90.50031790263631,19.81681693547555],[-90.5038449628214,19.81600613693836],[-90.50389716590931,19.81625246213799],[-90.50401617845236,19.81630298612118],[-90.50609043220338,19.81582254196418],[-90.50574184017837,19.81446492153796],[-90.50658274821731,19.81421816293084],[-90.50150467178307,19.79296711709954],[-90.49974764179237,19.79264481731174],[-90.49908025247412,19.79255584926066],[-90.49781654478643,19.79256794404298],[-90.49137324642157,19.79405731573902],[-90.49084510294314,19.79422828885669],[-90.4903771791042,19.7944429507213],[-90.48991383340264,19.79477386546249],[-90.48938759018071,19.79527419667532],[-90.48907426626992,19.7956960123443],[-90.48804677390685,19.79802500582018],[-90.48767599463908,19.79881023396962],[-90.48905312793292,19.80050969470951],[-90.48930354826767,19.80124416022577],[-90.48943456512166,19.80148587912259],[-90.48966493178084,19.80171713822789],[-90.48964440299925,19.80191394340421],[-90.4896251322969,19.80200473938402],[-90.48963864040101,19.80237696262256],[-90.49098991801344,19.80793017220453],[-90.49107469264364,19.80808286983613],[-90.49229564266739,19.8094033120267],[-90.49250703580766,19.80989550500967],[-90.49320302706806,19.80974595640288],[-90.49223464643896,19.80590017281482],[-90.49419005787904,19.80547726456607],[-90.49463491303986,19.80540971678879],[-90.49498975784846,19.80677143143734],[-90.49767084873722,19.80669051647352],[-90.50031790263631,19.81681693547555]]]}},{"type":"Feature","properties":{"sectionId":"565","kind":"label","name":"Secci\u00f3n 565"},"geometry":{"type":"Point","coordinates":[-90.49400072543862,19.80274931921945]}},{"type":"Feature","properties":{"sectionId":"566","kind":"boundary","index":0},"geometry":{"type":"Polygon","coordinates":[[[-90.48767583434253,19.79880988168926],[-90.48739981470665,19.79933791445844],[-90.48634870605518,19.80065761181913],[-90.48508947147317,19.80092369534884],[-90.48526619068487,19.80390621665938],[-90.48516062871698,19.80516098101714],[-90.48526427444921,19.80581454695714],[-90.48758648351318,19.8152811085502],[-90.490627736745,19.81574612479541],[-90.49245250746942,19.81663229237563],[-90.49340762171289,19.81530506913501],[-90.49359179499523,19.81493889549584],[-90.49366491708987,19.81462889532308],[-90.49356637454622,19.81436599619747],[-90.49354236813475,19.81398387559017],[-90.49358355299486,19.81376709603798],[-90.49363605769115,19.81359498344043],[-90.4937112711313,19.8134996679649],[-90.49364295455331,19.8133949265693],[-90.49345468411425,19.81323686144502],[-90.49250690933077,19.80989553041067],[-90.49229547785801,19.80940346270523],[-90.49107487737638,19.80808321128803],[-90.49098996919129,19.80793018898369],[-90.48963860483423,19.80237700209765],[-90.48962501800261,19.80200645116299],[-90.48964370400431,19.80191556973449],[-90.4896651009249,19.80171656727572],[-90.48943481902741,19.80148673325007],[-90.4893035449078,19.801244618564],[-90.48905262518333,19.80050964920113],[-90.48767583434253,19.79880988168926]]]}},{"type":"Feature","properties":{"sectionId":"566","kind":"label","name":"Secci\u00f3n 566"},"geometry":{"type":"Point","coordinates":[-90.48909124478172,19.80792733272737]}}]}